Entity Type,License Number,Sidewalk Cafe Type,Lic Area Sq Ft,Entity Name,Camis Trade Name,Address Bldg,Address Street Name,Address Location,Address City,Address State,Address Zip Code,Camis Phone Number
SIDEWALK CAFE,293907,Unenclosed,611,DMF GRAMERCY ENTERPRISES INC,PETE'S TAVERN       S/C #111,129,EAST   18 STREET,,NEW YORK,NY,10003,2124737676
SIDEWALK CAFE,571720,Enclosed,435,1616 SECOND AVENUE RESTAURANT INC,DORRIAN'S RED HAND  E/S/C #217,1616,2 AVENUE,,NEW YORK,NY,10028,2127726660
SIDEWALK CAFE,578810,Enclosed,407,CAFFE ISLE OF CAPRI INC,,1028,3 AVENUE,,NEW YORK,NY,10065,2127581828
SIDEWALK CAFE,623018,Enclosed,479,P J COFFEE SHOP INC,,80,CLARK STREET,,BROOKLYN,NY,11201,7188555484
SIDEWALK CAFE,629616,Enclosed,366,ZONOR REST CORP,,225,WEST    4 STREET,,NEW YORK,NY,10014,2122436722
SIDEWALK CAFE,670525,Unenclosed,752,CALIENTE CAB REST. CO INC,CALIENTE CAB CO,61,7 AVENUE SOUTH,,NEW YORK,NY,10014,2122438517
SIDEWALK CAFE,693313,Enclosed,129,SANGE RESTAURANT INC,TIO PEPE            S/C #215,168,WEST    4 STREET,,NEW YORK,NY,10014,2126755097
SIDEWALK CAFE,695954,Enclosed,416,269 COLUMBUS REST. CORP.,THE CITY GRILL,269,COLUMBUS AVENUE,,NEW YORK,NY,10023,2123970666
SIDEWALK CAFE,697987,Enclosed,429,MIMIS REST CORP,E/S/C #255,984,2 AVENUE,,NEW YORK,NY,10022,2126884692
SIDEWALK CAFE,698346,Enclosed,260,ROLL-N-ROASTER CORP.,,2901,EMMONS AVENUE,,BROOKLYN,NY,11235,7187695831
SIDEWALK CAFE,699252,Enclosed,170,NECTAR RESTAURANT CORP,,1090,MADISON AVENUE,,NY,NY,10028,2127720916
SIDEWALK CAFE,733469,Enclosed,500,STAGE DELICATESSEN & RESTAURANT INC.,E/S/C #294,832,7 AVENUE,832-834 7 AVE,NEW YORK,NY,10019,2122457850
SIDEWALK CAFE,735569,Enclosed,548,INDIA FOODS INTERNATIONAL INC,INDIAN CAFE,2791,BROADWAY,,NEW YORK,NY,10025,2127499200
SIDEWALK CAFE,737570,Enclosed,201,352 EAST 86TH STREET INC.,GRACIE'S CORNER,352,EAST   86 STREET,,NEW YORK,NY,10028,2127378505
SIDEWALK CAFE,738544,Enclosed,298,320 COLUMBUS AVE INC,MUGHLAI INDIAN CUISINE,320,COLUMBUS AVENUE,,NEW YORK,NY,10023,2127247073
SIDEWALK CAFE,760685,Enclosed,240,603 SECOND AVE CORP,BENJAMIN,603,2 AVENUE,,NEW YORK,NY,10016,2128890750
SIDEWALK CAFE,761576,Enclosed,422,FORTUNATO BROS.CAFE & BAKERY CORP,,289,MANHATTAN AVENUE,E/S/C #357,BROOKLYN,NY,11211,7183872281
SIDEWALK CAFE,762511,Unenclosed,162,LU-ANN BAKERY SHOP INC,BRUNO BAKERY        S/C #362,506,LA GUARDIA PLACE,,NEW YORK,NY,10012,2129825894
SIDEWALK CAFE,768933,Unenclosed,148,CAFFE DANTE INC,,81,MACDOUGAL STREET,,NEW YORK,NY,10012,2129825275
SIDEWALK CAFE,769760,Enclosed,422,FIRST 69TH ST REALTY CORP,WESTSIDE RESTAURANT E/S/C #417,2020,BROADWAY,,NEW YORK,NY,10023,2127244000
SIDEWALK CAFE,769952,Unenclosed,728,"567 HUDSON STREET, INC.",WHITE HORSE TAVERN,567,HUDSON STREET,,NEW YORK,NY,10014,2129893956
SIDEWALK CAFE,782187,Enclosed,227,MEXICO LINDO RESTAURANT INC,MEXICO LINDO        E/S/C #431,459,2 AVENUE,,NEW YORK,NY,10010,2126793665
SIDEWALK CAFE,782318,Unenclosed,43,"CAVALLACCI, FABRIZIO",CAFE REGGIO,119,MACDOUGAL STREET,119-123 MACDOUGAL ST,NEW YORK,NY,10012,2124759557
SIDEWALK CAFE,786740,Unenclosed,121,CORNELIA STREET CAFE INC,CORNELIA STREET CAFE  S/C #480,29,CORNELIA STREET,,NEW YORK,NY,10014,2129899319
SIDEWALK CAFE,787968,Unenclosed,144,A.C.A. 110 MULBERRY INC.,LA BELLA FERRARA COFFEE SHOP,110,MULBERRY STREET,,NEW YORK,NY,10013,2129661488
SIDEWALK CAFE,789922,Enclosed,420,345 COURT ST CORP,MARCO POLO REST     E/S/C #508,345,COURT STREET,,BROOKLYN,NY,11231,7188525015
SIDEWALK CAFE,804523,Unenclosed,535,TWO & EIGHT GOURMET LTD.,DALLAS BBQ,132,SECOND AVENUE,,MANHATTAN,NY,10003,2125292563
SIDEWALK CAFE,804849,Enclosed,375,THE BORDON AVE REST. INC,WATERFRONT CRABHOUSEE/S/C #530,2-03,BORDEN AVENUE,,LIC,NY,11101,7187294862
SIDEWALK CAFE,805433,Unenclosed,226,TORTILLA FLATS INC,,767,WASHINGTON STREET,,NEW YORK,NY,10014,2122431053
SIDEWALK CAFE,806050,Unenclosed,283,316 RESTAURANT CORP,PAPPARDELLA,316,COLUMBUS AVENUE,,NEW YORK,NY,10023,2127247073
SIDEWALK CAFE,807555,Unenclosed,46,DYNAMIC MUSIC CORP,,117,MACDOUGAL STREET,,NEW YORK,NY,10012,2122547533
SIDEWALK CAFE,811193,Unenclosed,63,MEZZALUNA ASSOCIATES,,1295,3 AVENUE,,NEW YORK,NY,10021,2125359600
SIDEWALK CAFE,811344,Unenclosed,251,SEVEN A CAFE INC,,109,AVENUE A,,NY,NY,10009,2126736583
SIDEWALK CAFE,812902,Unenclosed,453,RE SPEC CORP,JACKSON HOLE        S/C #594,517,COLUMBUS AVENUE,,NEW YORK,NY,10024,2123625177
SIDEWALK CAFE,814506,Unenclosed,356,CROISSANT CONSORTIUM LIMITED,THE HUNGARIAN PASTRY SHOP,1030,AMSTERDAM AVENUE,,NEW YORK,NY,10025,2128664230
SIDEWALK CAFE,819452,Unenclosed,252,FRIEND OF A FARMER CORP,,77,IRVING PLACE,,NEW YORK,NY,10003,2124772188
SIDEWALK CAFE,832521,Enclosed,307,J N P K INC,ARMONDO'S RESTAURANTE/S/C #672,74-27,37 AVENUE,,JACKSON HEIGHTS,NY,11372,7188980113
SIDEWALK CAFE,832737,Unenclosed,175,NILO INC.& VIOLA CONSULTING LLC,MEZZOGIORNO ASSOC.,195,SPRING STREET,,NEW YORK,NY,10012,9146326036
SIDEWALK CAFE,832749,Enclosed,191,VRISA RESTAURANT INC,MORNING STAR REST   E/SC 674,401,WEST   57 STREET,A.K.A. 879  9TH AVENUE,MANHATTAN,NY,10019,2122461593
SIDEWALK CAFE,835262,Unenclosed,84,"TARO REST, INC",DUE,1396,THIRD AVENUE,,NEW YORK,NY,10075,2122497070
SIDEWALK CAFE,838821,Unenclosed,35,LA TRAVIATA CORP,LA TRAVIATA RESTAURANT,139,MONTAGUE STREET,,BROOKLYN,NY,11201,7188584100
SIDEWALK CAFE,851080,Unenclosed,180,"THE FUTABA CORPORATION, INC.",CHOSHI JAPANESE RESTAURANT,77,IRVING PLACE,STORE #1 AND #2,NEW YORK,NY,10003,2124201419
SIDEWALK CAFE,851262,Unenclosed,264,NEW BELLA LUNA INC,BELLA LUNA,584,COLUMBUS AVENUE,,NEW YORK,NY,10024,2128772267
SIDEWALK CAFE,851667,Enclosed,395,TOTORE PIZZERIA & RESTUARANT INC.,TOTORE PIZZERIA & RESTUARANT INC.,36-20,DITMARS BOULEVARD,,ASTORIA,NY,11105,7189325924
SIDEWALK CAFE,852766,Enclosed,142,LAMARCA INC,LAMARCA CHEESE SHOP,161,EAST   22 STREET,,NEW YORK,NY,10010,2126737920
SIDEWALK CAFE,853927,Unenclosed,443,THREE BEANS INC,BENNY'S BURRITOS,93,AVENUE A,,NEW YORK,NY,10009,2122342054
SIDEWALK CAFE,855696,Unenclosed,175,FEENJON CORP,,103-105,MACDOUGAL STREET,,NEW YORK,NY,10012,2126746968
SIDEWALK CAFE,858542,Unenclosed,116,AREO RESTAURANT CORP,,8420,3 AVENUE,8424 3 AVE,BROOKLYN,NY,11209,7182380079
SIDEWALK CAFE,882869,Unenclosed,98,LIRA OF NEW YORK INC,LUKE'S BAR & GRILL,1394,3 AVENUE,,NEW YORK,NY,10075,2122497070
SIDEWALK CAFE,883054,Unenclosed,357,CABRINI PARTNERS INC,CORNER CAFE & BAKERY,3552,JOHNSON AVENUE,,BRONX,NY,10463,7186012861
SIDEWALK CAFE,883095,Unenclosed,302,83RD AMSTERDAM RESTAURANT CORP,HI LIFE BAR & GRILL,477,AMSTERDAM AVENUE,,NEW YORK,NY,10024,2127877199
SIDEWALK CAFE,884882,Unenclosed,145,POMODORO RESTAURANT & PIZZERIA INC,,51,SPRING STREET,,NEW YORK,NY,10012,2129669229
SIDEWALK CAFE,885830,Unenclosed,390,KEM REST INC,DON GIOVANNI,214,10 AVENUE,,MANHATTAN,NY,10011,2122429054
SIDEWALK CAFE,885853,Enclosed,226,JAPONICA U S A INC,JAPONICA,100,UNIVERSITY PLACE,,MANHATTAN,NY,10003,2122437752
SIDEWALK CAFE,885879,Unenclosed,160,K.I.D. RESTAURANT CORP.,MANATUS RESTAURANT,340,BLEECKER STREET,,NEW YORK,NY,10014,2129897042
SIDEWALK CAFE,885881,Enclosed,212,83/AMSTERDAM RESTAURANT CORP,HI-LIFE RESTAURANT,477,AMSTERDAM AVENUE,,NEW YORK,NY,10024,2127877199
SIDEWALK CAFE,890521,Unenclosed,253,200 EAST 81ST RESTAURANT CORP.,,1431,THIRD AVENUE,A/K/A 200 EAST 81 STREET,NEW YORK,NY,10028,2126500850
SIDEWALK CAFE,890546,Unenclosed,219,FLORIOS ENTERPRISES INC,,192,GRAND STREET,,NEW YORK,NY,10013,2122267610
SIDEWALK CAFE,890575,Unenclosed,351,WILD ROSE MANAGEMENT INC,,2756,BROADWAY,,MANHATTAN,NY,10025,2122224453
SIDEWALK CAFE,890588,Unenclosed,218,DOJO RESTAURANT INC,DOJO WEST,14,WEST    4 STREET,,NEW YORK,NY,10012,2126742516
SIDEWALK CAFE,895505,Unenclosed,255,BARJER CORP,FIREHOUSE RESTAURANT,522,COLUMBUS AVENUE,,NY,NY,10024,2127873473
SIDEWALK CAFE,895577,Enclosed,86,ANGELO VIVOLO RESTAURANT ASSOC INC,VIVOLO,140,EAST   74 STREET,,NEW YORK,NY,10021,2123080220
SIDEWALK CAFE,895586,Enclosed,265,M B R P REST INC,THE STUMBLE INN,1454,2 AVENUE,,NEW YORK,NY,10021,2126500561
SIDEWALK CAFE,895599,Unenclosed,260,151 SECOND AVE. REST. INC.,RYAN'S IRISH PUB,151,2 AVENUE,,NEW YORK,NY,10003,2127809866
SIDEWALK CAFE,895613,Unenclosed,297,COASTAL AT LINCOLN INC,JOSEPHINA,1900,BROADWAY,,NEW YORK,NY,10023,2127691212
SIDEWALK CAFE,895625,Enclosed,411,MAFRA RESTAURANT CORP,IL VIOLINO,180,COLUMBUS AVENUE,,MANHATTAN,NY,10023,2128732500
SIDEWALK CAFE,895637,Unenclosed,328,BURRITO JUNCTION INC.,,241,COLUMBUS AVENUE,,MANHATTAN,NY,10023,2125809494
SIDEWALK CAFE,895644,Unenclosed,231,FELLOW TRAVELERS LTD,THREE OF CUPS,83,1 AVENUE,,NEW YORK,NY,10003,2123880059
SIDEWALK CAFE,907202,Enclosed,,EMEL SOAN CORP,ATHENS CAFE,32-07,30 AVENUE,,QUEENS,NY,11102,7186262164
SIDEWALK CAFE,907203,Unenclosed,157,FRENCH ROAST INC,,78,WEST   11 STREET,A/K/A 456 6 AVENUE,MANHATTAN,NY,10011,2125057570
SIDEWALK CAFE,907217,Enclosed,381,KHYBER PASS CORP,BAMIYAN RESTAURANT,358,THIRD AVENUE,,NEW YORK,NY,10016,2124813232
SIDEWALK CAFE,907977,Unenclosed,252,MESTOLA CAFFE CORP.,VINO,1268,2 AVENUE,,NEW YORK,NY,10065,2127445370
SIDEWALK CAFE,908218,Unenclosed,145,TRUMLIN REST.CORP.,DIVINO RISTORANTE,1556,2 AVENUE,,NEW YORK,NY,10028,2128611096
SIDEWALK CAFE,916146,Enclosed,228,HUSSIEN ENVIRONMENT INC.,CLEOPATRAS NEEDLE.,2483,BROADWAY,,NEW YORK,NY,10025,2127696969
SIDEWALK CAFE,916981,Enclosed,720,33-01 BROADWAY CORP.,TIERRAS COLOMBIANAS II,33-01,BROADWAY,,ASTORIA,NY,11106,7189563012
SIDEWALK CAFE,917301,Unenclosed,160,BROADWAY 76 LTD,NIKO'S MEDITERREAN GRILL AND BISTRO,2161,BROADWAY,,NEW YORK,NY,10024,2128737000
SIDEWALK CAFE,917302,Enclosed,308,BROADWAY 76 LTD,NIKO'S MEDITERREAN GRILL AND BISTRO,2161,BROADWAY,,NEW YORK,NY,10024,2128737000
SIDEWALK CAFE,917885,Unenclosed,277,"BLEECKER TRATTORIA, INC.",,232,BLEECKER STREET,,NEW YORK,NY,10014,2122556752
SIDEWALK CAFE,918358,Unenclosed,297,RESTAURANT 597 INC.,BUS STOP,597,HUDSON STREET,,NEW YORK,NY,10014,2122061100
SIDEWALK CAFE,918521,Unenclosed,106,CABANA-70 ASSOCIATES L.P.,CABANA RESTAURANT AND BAR,107-10,70 ROAD,,QUEENS,NY,11375,2125131988
SIDEWALK CAFE,919619,Unenclosed,89,ZESTFUL MANAGEMENT CORP.,BAR 6,502,AVENUE OF THE AMERICAS,SIXTH AVENUE,NEW YORK,NY,10011,2126911363
SIDEWALK CAFE,919907,Unenclosed,210,"HEARTLAND BREWERY, INC",HEARTLAND BREWERY,35,UNION SQUARE WEST,,NEW YORK,NY,10003,2126453400
SIDEWALK CAFE,919917,Unenclosed,206,"COWGIRL, INC",,519,HUDSON STREET,,NEW YORK,NY,10014,2126331133
SIDEWALK CAFE,920112,Unenclosed,186,"BARFLY, INC",BARFLY,244,THIRD AVENUE,,NEW YORK,NY,10010,2124739660
SIDEWALK CAFE,920314,Enclosed,159,LEKKAS RESTAURANT CORPORATION,,322,SEVENTH AVENUE,,NEW YORK,NY,10001,2122390760
SIDEWALK CAFE,920440,Unenclosed,125,JO-RACH INC,THE CAFFE PALERMO,148,MULBERRY STREET,,NY,NY,10013,2124314205
SIDEWALK CAFE,920629,Unenclosed,84,"172 BLEECKER STREET RESTAURANT,INC",CAFE ESPANOL,172,BLEECKER STREET,,NEW YORK,NY,10012,2125050657
SIDEWALK CAFE,920717,Unenclosed,371,THE ODEON INC,,145,WEST BROADWAY,,NEW YORK,NY,10013,2122330507
SIDEWALK CAFE,920983,Unenclosed,275,"RESTAURANT VENTURES OF NY,INC.",,200,SPRING STREET,,NYC,NY,10012,2124311212
SIDEWALK CAFE,922650,Unenclosed,718,ZONOR REST CORP.,RIVIERA CAFE,225,WEST    4 STREET,,NEW YORK,NY,10014,2129293250
SIDEWALK CAFE,924263,Enclosed,439,STARBUCKS CORPORATION,STARBUCKS COFFEE CO. #818,1559,2 AVENUE,,NEW YORK,NY,10028,2063184048
SIDEWALK CAFE,924582,Enclosed,,STARBUCKS CORPORATION,STARBUCKS COFFEE COMPANY,454,LAFAYETTE STREET,STORE #825,NEW YORK,NY,10003,2063184048
SIDEWALK CAFE,924708,Unenclosed,68,BLL RESTAURANT CORP.,PORTO BELLO RESTAURANT,208,THOMPSON STREET,,NEW YORK,NY,10012,2124737794
SIDEWALK CAFE,924875,Enclosed,516,449 RESTAURANT INC.,MOONSTRUCK DINER,449,THIRD AVENUE,,NEW YORK,NY,10016,2122131100
SIDEWALK CAFE,928548,Enclosed,418,184 3RD AVENUE RESTAURANT CORP.,GRAMERCY CAFE,184,3 AVENUE,,NEW YORK,NY,10003,7185672990
SIDEWALK CAFE,928680,Unenclosed,228,"300 E. 5TH ST. REST., INC.",MARYANN'S D.F.,300,EAST    5 STREET,,NEW YORK,NY,10003,2124755939
SIDEWALK CAFE,929109,Unenclosed,280,"GILLI, INC.",GILLI REST,417,AMSTERDAM AVENUE,,NEW YORK,NY,10024,2123621180
SIDEWALK CAFE,930600,Unenclosed,180,LUMI CORPORATION,,963,LEXINGTON AVENUE,,NEW YORK,NY,10021,9174285668
SIDEWALK CAFE,931051,Unenclosed,163,"M.E.G.RESTAURANT ENTERPRISES,LTD.",NOVITA,102,EAST   22 STREET,,NEW YORK,NY,10010,2126772222
SIDEWALK CAFE,931822,Unenclosed,397,NOHO STAR INC.,THE NOHO STAR,330,LAFAYETTE STREET,,NEW YORK,NY,10012,2129250070
SIDEWALK CAFE,933853,Unenclosed,386,VESELKA ENTERPRISES LTD,,144,2 AVENUE,,NEW YORK,NY,10003,2122289682
SIDEWALK CAFE,935481,Unenclosed,180,MICHAEL KING INC.,,1361,1 AVENUE,GR.FL,NEW YORK,NY,10021,2127373664
SIDEWALK CAFE,936261,Unenclosed,272,"SEVENTH AVENUE TOMATO,INC.",RESTIVO RISTORANTE,209,7 AVENUE,,NEW YORK,NY,10011,2123664133
SIDEWALK CAFE,940252,Unenclosed,264,"CARMINES BROADWAY FEAST,INC.",CARMINE'S,2450,BROADWAY,,NEW YORK,NY,10024,2123622200
SIDEWALK CAFE,941701,Unenclosed,408,ANDIKIANA CORP.,SILVER SPURS EATERY,490,LA GUARDIA PLACE,,NEW YORK,NY,10012,2122282333
SIDEWALK CAFE,943587,Unenclosed,85,R&A EAST 16TH ASSOCIATES,CHAT 'N CHEW,10,EAST   16 STREET,,NEW YORK,NY,10003,2126611313
SIDEWALK CAFE,945762,Unenclosed,96,136 WEST BROADWAY INC.,EDWARD'S,136,WEST BROADWAY,,NEW YORK,NY,10013,2122336436
SIDEWALK CAFE,949447,Unenclosed,113,164 MULBERRY ST. CORP,DA NICO RESTAURANT,164,MULBERRY STREET,,NEW YORK,NY,10013,2123431212
SIDEWALK CAFE,949696,Enclosed,414,"THREE DECKER RESTAURANT,LTD",THREE DECKER RESTAURANT,1746,2 AVENUE,,NEW YORK,NY,10128,2122899936
SIDEWALK CAFE,950183,Unenclosed,193,"ME'KONG DELTA, INC.",REPUBLIC RESTAURANT,37,UNION SQUARE WEST,,NEW YORK,NY,10003,2126277172
SIDEWALK CAFE,950945,Enclosed,870,162-54 CORP,CAROSELLO CAFE,162-54,CROSSBAY BOULEVARD,,HOWARD BEACH,NY,11414,7188435055
SIDEWALK CAFE,952606,Unenclosed,113,1490 REST. INC.,WATSON'S,1490,SECOND AVENUE,,NEW YORK,NY,10075,2126764817
SIDEWALK CAFE,953473,Unenclosed,558,"359 COLUMBUS AVENUE, LLC",ISABELLA'S,359,COLUMBUS AVENUE,,NEW YORK,NY,10024,2127242100
SIDEWALK CAFE,953744,Unenclosed,180,442 AMSTERDAM RESTAURANT CORP.,GIN MILL,442,AMSTERDAM AVENUE,,NEW YORK,NY,10024,2125809080
SIDEWALK CAFE,954269,Unenclosed,237,JUDEX ENTERPRISES INC.,PANGEA,178,2 AVENUE,,NEW YORK,NY,10003,2129950900
SIDEWALK CAFE,954466,Unenclosed,175,1291 PUB INC.,,1291,THIRD AVENUE,,NEW YORK,NY,10021,2127440585
SIDEWALK CAFE,954963,Unenclosed,83,"BLOCKHEAD'S BURRITOS, INC.",BLOCKHEADS,499,3 AVENUE,,NEW YORK,NY,10016,2122133332
SIDEWALK CAFE,955462,Enclosed,420,MEXICALI ENTERPRISES LTD,RODEO BAR AND GRILL,375,3 AVENUE,,NEW YORK,NY,10016,2126836500
SIDEWALK CAFE,955674,Unenclosed,212,MBRP REST.INC.,THE STUMBLE INN,1454,2 AVENUE,,NEW YORK,NY,10021,2127379391
SIDEWALK CAFE,955758,Unenclosed,234,"KIMAN COFFEE SHOP,INC.",BIG NICK'S BURGER JOINT & PIZZA JOINT,2173-75,BROADWAY,,NEW YORK,NY,10024,2125131988
SIDEWALK CAFE,955847,Unenclosed,379,"MSD ENTERPRISES,INC",,118,SECOND AVENUE,,NEW YORK,NY,10003,2122530425
SIDEWALK CAFE,955853,Unenclosed,200,"MIDWEST TOMATO,INC",PUTTANESCA,859,9 AVENUE,,NEW YORK,NY,10019,2125814177
SIDEWALK CAFE,956923,Unenclosed,380,CAFFE SILVESTRI INC.,CAFFE NAPOLI,191,HESTER STREET,A/K/A 130 MULBERRY STREET,NEW YORK,NY,10013,2122268705
SIDEWALK CAFE,957079,Unenclosed,360,TWO BACALHAUS INC,PAO,322,SPRING STREET,,NEW YORK,NY,10013,2123345464
SIDEWALK CAFE,957290,Unenclosed,185,"J & D OPERATORS,LLC",PROHIBITION,503,COLUMBUS AVENUE,,NEW YORK,NY,10024,2125793100
SIDEWALK CAFE,958014,Unenclosed,203,SETA RESTAURANT CORP.,,686,NINTH AVENUE,,NEW YORK,NY,10036,2122456060
SIDEWALK CAFE,959237,Unenclosed,289,"MOHECO,INC.",,32-90,36 STREET,,QUEENS,NY,11106,7182045273
SIDEWALK CAFE,960499,Unenclosed,356,"A.B.C. HOME FURNISHINGS, INC.",THE PIPA,38,EAST   19 STREET,,NEW YORK,NY,10003,2124733000
SIDEWALK CAFE,960517,Unenclosed,61,NERA CORP.,,145,AVENUE A,,NEW YORK,NY,10009,2126737231
SIDEWALK CAFE,964932,Unenclosed,134,ANGELO OF MULBERRY STREET INC.,,146,MULBERRY STREET,,NY,NY,10013,2129661277
SIDEWALK CAFE,966602,Enclosed,227,"BELLA CUCINA, INC",,1293,LEXINGTON AVENUE,,NEW YORK,NY,10128,2122899004
SIDEWALK CAFE,968091,Unenclosed,108,"ERJO COMPANY, LLC",MOTTSU,285,MOTT STREET,,NEW YORK,NY,10012,2123438017
SIDEWALK CAFE,970343,Enclosed,,C.S.L.L. REST. CORP,EJ'S LUNCHEONETTE,1271,THIRD AVENUE,,NEW YORK,NY,10021,2124720600
SIDEWALK CAFE,970546,Enclosed,176,R ANGEL INC,MCDONALD'S,57-25,ROOSEVELT AVENUE,,WOODSIDE,NY,11377,6316984788
SIDEWALK CAFE,974443,Enclosed,346,SAC'S PIZZA PLACE INC.,SAC'S PLACE,25-41,BROADWAY,,ASTORIA,NY,11106,7182045002
SIDEWALK CAFE,976266,Unenclosed,290,"CAFE FOCACCIA, INC.",,1166,1 AVENUE,,NEW YORK,NY,10065,2126830371
SIDEWALK CAFE,976336,Enclosed,185,G.K. RESTAURANT & BAGELS CORP.,BAGEL BOB'S ON YORK,1638,YORK AVENUE,,NEW YORK,NY,10028,2125353838
SIDEWALK CAFE,976475,Enclosed,148,VIAND RESTAURANT INC,,300,EAST   86 STREET,,NEW YORK,NY,10028,2128799425
SIDEWALK CAFE,977278,Unenclosed,166,ROMI BAKERY INC.,GIAN & PIERO BAKERY,44-17,30 AVENUE,,QUEENS,NY,11103,7182748959
SIDEWALK CAFE,978206,Enclosed,366,SIBECA CORPORATION,POLLOS MARIO,40-19,BROADWAY,,ASTORIA,NY,11103,7189322424
SIDEWALK CAFE,978960,Unenclosed,214,ST. JAMES ASSOCIATES LP,SMITH & WOLLENSKY,201,EAST   49 STREET,,NEW YORK,NY,10017,2127531530
SIDEWALK CAFE,978961,Enclosed,334,"ST. JAMES ASSOCIATES, LP",SMITH & WOLLENSKY,201,EAST   49 STREET,,NEW YORK,NY,10017,2127531530
SIDEWALK CAFE,979320,Unenclosed,370,"1337 THIRD AVENUE, LLC",ATLANTIC GRILL,1337,3 AVENUE,,NEW YORK,NY,10075,2129889200
SIDEWALK CAFE,979463,Unenclosed,169,DE PALINO RESTAURANT CORP.,CITY CRAB & SEAFOOD CO.,235,PARK AVENUE SOUTH,,NEW YORK,NY,10003,2125293800
SIDEWALK CAFE,979768,Unenclosed,140,MANEKEN CORP.,PETITE ABEILLE,466,HUDSON STREET,,MANHATTAN,NY,10014,2127271505
SIDEWALK CAFE,980100,Unenclosed,382,RADIANTE LLC,CITY HALL RESTAURANT,131,DUANE STREET,,MANHATTAN,NY,10013,2124069038
SIDEWALK CAFE,980182,Unenclosed,148,SUNFLOWER RESTAURANT ASSOC. INC,FLOR DE SOL,361,GREENWICH STREET,,NEW YORK,NY,10013,2123661640
SIDEWALK CAFE,981250,Unenclosed,139,BSWR CORP.,,423,AMSTERDAM AVENUE,,NEW YORK,NY,10024,2124966280
SIDEWALK CAFE,982077,Unenclosed,168,MARE MARE INC.,BISTRO CASSIS,225,COLUMBUS AVENUE,,NEW YORK,NY,10023,6313671156
SIDEWALK CAFE,984023,Enclosed,180,"PLAZA MEXICO, INC.",MAMA MEXICO,2672,BROADWAY,,NEW YORK,NY,10025,2128642323
SIDEWALK CAFE,984345,Enclosed,328,"HELEDONA, INC",,200,WEST   60 STREET,,NEW YORK,NY,10023,2125015259
SIDEWALK CAFE,984692,Unenclosed,306,"PYRAMID RESTAURANT GROUP, INC",JOSIE'S,565,3 AVENUE,,NEW YORK,NY,10016,2124901558
SIDEWALK CAFE,987074,Unenclosed,202,A & Z RESTAURANT CORP.,WINEBAR,65,2 AVENUE,NORTH STORE,NEW YORK,NY,10003,2127771608
SIDEWALK CAFE,987452,Enclosed,167,UKATOSH CORP,,36-02,31 STREET,"A/K/A 31-02, 36 STREET",ASTORIA,NY,11106,7184332191
SIDEWALK CAFE,990613,Unenclosed,172,NEW STORE RESTAURANT CORP,,447,AMSTERDAM AVENUE,,NEW YORK,NY,10024,2128733444
SIDEWALK CAFE,997686,Unenclosed,95,TRE-GIOVANI INC,,548,LA GUARDIA PLACE,,NEW YORK,NY,10012,2124757420
SIDEWALK CAFE,999317,Enclosed,188,PEEGEES ASSOCIATES LLC,TOTONNO'S PIZZERIA NAPOLITANO,1544,2 AVENUE,,NY,NY,10028,2123272800
SIDEWALK CAFE,999448,Unenclosed,306,"DELUXE ON BROADWAY, INC.",,2896,BROADWAY,,NEW YORK,NY,10025,9172082174
SIDEWALK CAFE,1000225,Unenclosed,470,"119 7TH AVEUNE CAFETERIA, LLC",CAFETERIA,119,7 AVENUE,,NEW YORK,NY,10011,2124141717
SIDEWALK CAFE,1000314,Unenclosed,480,"BROADWAY DESSERTS, LTD",,2340,BROADWAY,,NEW YORK,NY,10024,2125131988
SIDEWALK CAFE,1000917,Unenclosed,109,BUCKWHEAT AND ALFALFA INC,THE ROCKING HORSE MEXICAN CAFE,182,EIGHTH AVENUE,,NEW YORK,NY,10011,2124639511
SIDEWALK CAFE,1001063,Unenclosed,741,112 FRENCH INC,LE MONDE,2883,BROADWAY,,NEW YORK,NY,10025,2125313939
SIDEWALK CAFE,1001562,Enclosed,236,KARAVAS FOOD LTD,KARAVAS PLACE TAVERN,162,WEST    4 STREET,,NY,NY,10014,2122438007
SIDEWALK CAFE,1001940,Unenclosed,142,"BREAD OF LIFE, LLC",,1712,2 AVENUE,,NEW YORK,NY,10128,2127224242
SIDEWALK CAFE,1002419,Unenclosed,84,1483 FIRST AVENUE RESTAURANT INC.,,1483,FIRST AVENUE,,NEW YORK,NY,10075,2129888877
SIDEWALK CAFE,1002936,Unenclosed,92,SAWOY INC,REGIONAL THAI SAWOY,1479,FIRST AVENUE,,NEW YORK,NY,10075,2125851942
SIDEWALK CAFE,1003195,Unenclosed,119,RIOMAR CORP,KANA,324,SPRING STREET,,SOHO,NY,10013,2123438180
SIDEWALK CAFE,1003313,Unenclosed,169,J.P.G. LLC,PHILIP MARIE,569,HUDSON STREET,,NEW YORK,NY,10014,2128673820
SIDEWALK CAFE,1004472,Unenclosed,199,TAKATSUKI CORPORATION,,188-190,2 AVENUE,,NEW YORK,NY,10003,2122606303
SIDEWALK CAFE,1006183,Unenclosed,297,520 COLUMBUS AVE LTD,NONNA RESTAURANT,520,COLUMBUS AVENUE,,NEW YORK,NY,10024,2125793194
SIDEWALK CAFE,1007220,Enclosed,272,"OLIVER KING ENTERPRISES, INC.",EMPIRE SZECHWAN VILLAGE,173,7 AVENUE SOUTH,,NEW YORK,NY,10014,2122436046
SIDEWALK CAFE,1008741,Unenclosed,402,ROCCO'S ITALIAN CAFETERIA,ROCCO'S ITALIAN CAFETERIA,6408,FORT HAMILTON PARKWAY,,BROOKLYN,NY,11219,7188332109
SIDEWALK CAFE,1008999,Unenclosed,155,"CLUB AMERICA, INC.",ASSAGGIO,473,COLUMBUS AVENUE,,NEW YORK,NY,10024,2124009401
SIDEWALK CAFE,1010561,Unenclosed,100,17 MILE CORPORATION,BLUE MOON MEXICAN CAFE,1444,1 AVENUE,,NEW YORK,NY,10021,2122889811
SIDEWALK CAFE,1010686,Unenclosed,129,LA RIPAILLE CORP,LA RIPAILLE RESTAURANT,605,HUDSON STREET,,NEW YORK,NY,10014,2122554406
SIDEWALK CAFE,1011960,Unenclosed,103,"PEE WEE & TYSON, LTD",CAFE GITANE,242,MOTT STREET,,NEW YORK,NY,10003,2129650918
SIDEWALK CAFE,1013198,Unenclosed,164,"GRACE'S MARKETPLACE, INC",GRACE'S TRATTORIA CAFE & GRILL,201,EAST   71 STREET,,NEW YORK,NY,10021,2128760200
SIDEWALK CAFE,1013335,Unenclosed,166,"L. SZECHUAN EAST, LTD",PIG HEAVEN RESTAURANT,1540,2 AVENUE,,NEW YORK,NY,10028,2127444333
SIDEWALK CAFE,1015214,Unenclosed,127,GYRO KING FOODS CORP.,,50,EAST FORDHAM ROAD,A/K/A 2450 WALTON AVENUE,BRONX,NY,10468,7184898050
SIDEWALK CAFE,1016775,Unenclosed,147,"BEK ENTERPRISES, INC",SAVANN RESTAURANT,414,AMSTERDAM AVENUE,,NEW YORK,NY,10024,2125800202
SIDEWALK CAFE,1020216,Unenclosed,179,HAVELI RESTAURANT INC.,,100,2 AVENUE,,NEW YORK,NY,10003,2129820533
SIDEWALK CAFE,1021206,Enclosed,510,2180 BROADWAY REST. INC,MANHATTAN DINER,2180,BROADWAY,,NEW YORK,NY,10024,2128777252
SIDEWALK CAFE,1022739,Enclosed,371,"TERMINUS RESTAURANT ASSOCIATES, LLC",ORSAY RESTAURANT,1057,LEXINGTON AVENUE,,NEW YORK,NY,10021,2125174296
SIDEWALK CAFE,1023023,Unenclosed,175,EGG WHITE INC,BLOCKHEADS,1563,SECOND AVENUE,,NEW YORK,NY,10028,2123560006
SIDEWALK CAFE,1023699,Unenclosed,99,P.E.C GROUP LTD.,PEPOLINO,281,WEST BROADWAY,,NEW YORK,NY,10013,2129669983
SIDEWALK CAFE,1024654,Unenclosed,228,"JAYA MALAYSIAN RESTAURANT, INC",JAYA MALAYSIAN RESTAURANT,90,BAXTER STREET,,NEW YORK,NY,10013,2122193331
SIDEWALK CAFE,1025180,Unenclosed,908,"GRILLO, LTD",HENRY'S,2745,BROADWAY,,NEW YORK,NY,10025,2128660600
SIDEWALK CAFE,1025224,Unenclosed,585,"SURTIC, INC",CITRUS,320,AMSTERDAM AVENUE,,NEW YORK,NY,10023,2125950500
SIDEWALK CAFE,1025932,Unenclosed,187,"KITCHEN TABLE, INC",FRANK RESTAURANT,88,2 AVENUE,,NEW YORK,NY,10003,2124200202
SIDEWALK CAFE,1026510,Enclosed,301,STROKOS GOURMET DELI INC,,1090,AMSTERDAM AVENUE,,NEW YORK,NY,10025,2126662121
SIDEWALK CAFE,1026947,Enclosed,294,COSITAS RICAS CORP.,,79-19,ROOSEVELT AVENUE,,JACKSON HEIGHTS,NY,11372,7184788136
SIDEWALK CAFE,1027124,Unenclosed,249,HARU THIRD AVENUE CORP.,,1329,3 AVENUE,,NEW YORK,NY,10075,2124522230
SIDEWALK CAFE,1027125,Unenclosed,291,HARU AMSTERDAM AVENUE CORP.,HARU,433,AMSTERDAM AVENUE,,NEW YORK,NY,10024,2125795655
SIDEWALK CAFE,1027305,Unenclosed,626,"COSI, INC.",,841,BROADWAY,,NEW YORK,NY,10003,2126148544
SIDEWALK CAFE,1027923,Unenclosed,337,"MARLOW, INC.",,85,BROADWAY,,BROOKLYN,NY,11211,7184863077
SIDEWALK CAFE,1027927,Unenclosed,175,GOOD ENOUGH TO EAT UPTOWN LTD,,483,AMSTERDAM AVENUE,,NEW YORK,NY,10024,2124960163
SIDEWALK CAFE,1028336,Unenclosed,365,"V & T RESTAURANT, INC",,1024,AMSTERDAM AVENUE,,NEW YORK,NY,10025,2126631708
SIDEWALK CAFE,1028755,Enclosed,645,1236 SECOND AVENUE REST. CORP.,SILVER STAR RESTAURANT,1236,2 AVENUE,,NEW YORK,NY,10065,2122494250
SIDEWALK CAFE,1028853,Unenclosed,159,"63RD STREET BAGEL CAFE, INC.",,1201,2 AVENUE,,NEW YORK,NY,10065,2127532614
SIDEWALK CAFE,1029004,Unenclosed,214,JADA RESTAURANT INC.,PETITE ABEILLE,134,WEST BROADWAY,,NEW YORK,NY,10013,2127271505
SIDEWALK CAFE,1030835,Unenclosed,130,GREENWICH VILLAGE BISTRO LTD,GREENWICH VILLAGE BISTRO,13,CARMINE STREET,,NEW YORK,NY,10014,2122069777
SIDEWALK CAFE,1030967,Unenclosed,137,BRASSERIE JULIEN CORP,,1422,3 AVENUE,,NEW YORK,NY,10028,2127446327
SIDEWALK CAFE,1034243,Unenclosed,95,STS RESTAURANT CORP.,,505,3 AVENUE,,NEW YORK,NY,10016,2126899022
SIDEWALK CAFE,1034252,Unenclosed,225,31 GREAT JONES RESTAURANT CORP.,FIVE POINTS,31,GREAT JONES STREET,,NEW YORK,NY,10012,2122535700
SIDEWALK CAFE,1034831,Unenclosed,501,177 CHRYSTIE INC,ESPERANTO,145,AVENUE C,,NEW YORK,NY,10009,2125056559
SIDEWALK CAFE,1035310,Unenclosed,185,TWELFTH STREET CORP,VILLAGE DEN RESTAURANT,225,WEST   12 STREET,,NEW YORK,NY,10011,2126910303
SIDEWALK CAFE,1035650,Unenclosed,440,BROADWAY & 166TH LLC,,3956,BROADWAY,,NEW YORK,NY,10032,2125683700
SIDEWALK CAFE,1035729,Unenclosed,153,"MESTRE, INC",LE ZIE 2000,172,SEVENTH AVENUE,,NEW YORK,NY,10011,2122068686
SIDEWALK CAFE,1035738,Unenclosed,168,MILL KOREAN RESTAURANT INC.,,2895,BROADWAY,,NEW YORK,NY,10025,2126667653
SIDEWALK CAFE,1036208,Unenclosed,212,283 SMITH STREET FOOD CORP,ZAYTOONS,283,SMITH STREET,,BROOKLYN,NY,11231,7188751880
SIDEWALK CAFE,1039389,Unenclosed,149,"SPOONBREAD, INC",MISS MAMIES,364,WEST  110 STREET,,NEW YORK,NY,10025,2128650700
SIDEWALK CAFE,1039396,Unenclosed,211,"AMSTERDAM AVENUE BROTHER JIMMY'S, LLC",BROTHER JIMMY'S WEST,428,AMSTERDAM AVENUE,,NEW YORK,NY,10024,2122443503
SIDEWALK CAFE,1057301,Unenclosed,154,NINO'S TRIBECA RESTAURANT LTD,OSSO BUCO,1662,3 AVENUE,,NEW YORK,NY,10128,2124265422
SIDEWALK CAFE,1063188,Enclosed,420,"PLAZA MEXICO, INC.",MAMA MEXICO,2672,BROADWAY,,NEW YORK,NY,10025,2128642323
SIDEWALK CAFE,1063397,Unenclosed,320,CHINA 1221 INC,,1221,2 AVENUE,,NEW YORK,NY,10065,2127520810
SIDEWALK CAFE,1066226,Enclosed,,L & L FOODS OF FIRST AVE LLC,MCDONALDS,104,FIRST AVENUE,,NEW YORK,NY,10009,2036563661
SIDEWALK CAFE,1066538,Enclosed,446,ACROPOL REST. CORP.,RITZ DINER,1133,1 AVENUE,,NEW YORK,NY,10065,2123194993
SIDEWALK CAFE,1067914,Unenclosed,345,"BENNY'S BURRITOS, INC",BENNY'S BURRITOS,111-113,GREENWICH AVENUE,,NEW YORK,NY,10014,2122133332
SIDEWALK CAFE,1067948,Enclosed,346,"FIRST AVENUE BROTHER JIMMY'S, LLC",,1485,2 AVENUE,,NEW YORK,NY,10075,2122880999
SIDEWALK CAFE,1068447,Unenclosed,252,RANCHO WEST CORPORATION,RANCHO,570,AMSTERDAM AVENUE,,NEW YORK,NY,10024,2123621514
SIDEWALK CAFE,1071297,Unenclosed,517,10TH AVENUE GROUP INC,44&X-HELLS KITCHEN,622,10 AVENUE,,NEW YORK,NY,10036,2129771170
SIDEWALK CAFE,1072082,Unenclosed,102,CLASSIC FOOD INC,,267,COLUMBUS AVENUE,,NEW YORK,NY,10023,2124962803
SIDEWALK CAFE,1072271,Unenclosed,136,HAPPY WALKING BOYS CORP,CHOW BAR AND GRILL,184,WEST   10 STREET,A/K/A 230 W 4 ST,NEW YORK,NY,10014,2126332212
SIDEWALK CAFE,1072286,Enclosed,497,OMONIA CAFE INC.,"OMONIA CAFE,",32-20,BROADWAY,,ASTORIA,NY,11106,7182746650
SIDEWALK CAFE,1072380,Unenclosed,410,198 8TH AVE REST. CORP,,198,8 AVENUE,,NEW YORK,NY,10011,2125131988
SIDEWALK CAFE,1072629,Unenclosed,110,LUNELLA RISTORANTE INC,LUNELLA,173,MULBERRY STREET,,NEW YORK,NY,10013,2129666639
SIDEWALK CAFE,1073015,Unenclosed,314,1274 AMSTERDAM TRATTORIA INC,,1274,AMSTERDAM AVENUE,,NEW YORK,NY,10027,9146326036
SIDEWALK CAFE,1073840,Unenclosed,178,ITALIAN MOTHER CORPORATION,,162,AVENUE A,,NEW YORK,NY,10009,2122286900
SIDEWALK CAFE,1074420,Enclosed,333,"MNY HOLDINGS ASSOCIATES, LLC",BAKER STREET,1152,1 AVENUE,,NEW YORK,NY,10065,9178422958
SIDEWALK CAFE,1075283,Unenclosed,144,"CAFE CON LECHE, INC.",CAFE CON LECHE,424,AMSTERDAM AVENUE,,NEW YORK,NY,10024,2125957000
SIDEWALK CAFE,1075404,Unenclosed,268,ST MARKS CAFE INC,,2,ST MARKS PLACE,,NEW YORK,NY,10003,2125336656
SIDEWALK CAFE,1075763,Enclosed,411,"BROADWAY & 166TH, LLC",DALLAS BBQ,3956,BROADWAY,,NEW YORK,NY,10032,2125683700
SIDEWALK CAFE,1076270,Enclosed,233,"LA COCINA ON THIRD AVENUE, INC.",,430,3 AVENUE,,NEW YORK,NY,10016,2125321887
SIDEWALK CAFE,1076706,Unenclosed,482,"EAE, CORP",SIDEWALK BAR & RESTAURANT,94,AVENUE A,,NEW YORK,NY,10009,2124737373
SIDEWALK CAFE,1076713,Unenclosed,333,I MALATESTA TRATTORIA INC,MALATESTA TRATTORIA,649,WASHINGTON STREET,,NYC,NY,10014,2127411207
SIDEWALK CAFE,1077945,Unenclosed,722,BANJARA DINING INC,,344,EAST SIXTH STREET,,NEW YORK,NY,10003,2124775956
SIDEWALK CAFE,1078735,Unenclosed,936,EMEL SOAN CORP,ATHENS CAFE,32-07,30 AVENUE,,QUEENS,NY,11102,7186262164
SIDEWALK CAFE,1079412,Unenclosed,195,C.A.P. RESTAURANT CORP.,,303,WEST   48 STREET,,NY,NY,10036,2125864853
SIDEWALK CAFE,1079876,Unenclosed,427,PANEANTICO BAKERY CAFE INC,,9124,3 AVENUE,,BROOKLYN,NY,11209,7186802347
SIDEWALK CAFE,1080119,Unenclosed,89,"172 BLEEKER ST. REST., INC",,190,SULLIVAN STREET,,NEW YORK,NY,10012,2125050657
SIDEWALK CAFE,1083827,Unenclosed,340,176 8TH AVENUE CORP.,NISOS RESTAURANT,176,8 AVENUE,,NEW YORK,NY,10011,6463368121
SIDEWALK CAFE,1085915,Enclosed,285,IXHEL CORPORATION,CAFE FRIDA,368,COLUMBUS AVENUE,,NEW YORK,NY,10024,2127122929
SIDEWALK CAFE,1087174,Unenclosed,269,953 ASSOCIATES LLC,,798,NINTH AVENUE,,NEW YORK,NY,10019,2127657080
SIDEWALK CAFE,1092103,Unenclosed,80,"RAJMAR HOLDINGS, INC.",HUDSON BAR AND BOOKS,636,HUDSON STREET,,NEW YORK,NY,10014,2123559888
SIDEWALK CAFE,1094184,Unenclosed,565,DANA'S LLC,,630,9 AVENUE,,NEW YORK,NY,10036,2123332323
SIDEWALK CAFE,1095291,Unenclosed,461,CINQUE FRATELLI INC,ACQUISTA TRATTORIA,178-01,UNION TURNPIKE,,FLUSHING,NY,11366,7189691411
SIDEWALK CAFE,1095967,Unenclosed,360,LIVING BREAD LLC,CILANTRO,1321,1 AVENUE,,NEW YORK,NY,10021,2127224242
SIDEWALK CAFE,1096363,Unenclosed,197,THIRD AVE. REST. INC.,JAKES' DILEMMA,430,AMSTERDAM AVENUE,,NEW YORK,NY,10024,2127379391
SIDEWALK CAFE,1097153,Unenclosed,162,RAGUBOY CORP.,,156,EAST    2 STREET,,NEW YORK,NY,10009,2124777600
SIDEWALK CAFE,1097155,Unenclosed,480,BAR GIACOSA CORP,,268,SIXTH AVENUE,,NEW YORK,NY,10014,2129822498
SIDEWALK CAFE,1097651,Unenclosed,157,THE ORIGINAL HOMESTEAD RESTAURANT INC,,59,9TH AVENUE,,NEW YORK,NY,10011,2122429040
SIDEWALK CAFE,1100598,Unenclosed,200,ZANZIBAR LLC,XIE XIE,645,9 AVENUE,,NEW YORK,NY,10036,2129579197
SIDEWALK CAFE,1101185,Unenclosed,384,"MOULINAS, LLC",,128,SMITH STREET,,BROOKLYN,NY,11201,7189230918
SIDEWALK CAFE,1101272,Unenclosed,126,659 REST. INC,,659,NINTH AVENUE,,NEW YORK,NY,10036,2122627755
SIDEWALK CAFE,1101999,Unenclosed,298,RDK RESTAURANT CORP.,BISTRO LES AMIS,180,SPRING STREET,,NEW YORK,NY,10012,2122268645
SIDEWALK CAFE,1102405,Unenclosed,328,S & P 66 INC,LIME LEAF,2799,BROADWAY,108 STREET,NEW YORK,NY,10025,9174328500
SIDEWALK CAFE,1102443,Unenclosed,162,"COSMIC CANTINA, INC.",COSMIC CANTINA,101,3 AVENUE,,NEW YORK,NY,10003,4159949459
SIDEWALK CAFE,1102989,Unenclosed,532,ZUMSCHNEIDER CORP,,107-109,AVENUE C,,NEW YORK,NY,10009,2125981098
SIDEWALK CAFE,1103058,Unenclosed,271,CALIENTE TEQUILA GRILL LLC,CALIENTE GRILL,282,BLEECKER STREET,A/K/A 59 7 AVE SO,NEW YORK,NY,10014,2126755265
SIDEWALK CAFE,1103083,Unenclosed,125,GROUBEN FOOD CORP.,,515,3 AVENUE,,NEW YORK,NY,10016,2125323300
SIDEWALK CAFE,1103409,Unenclosed,168,"VERB, INC.",,218,BEDFORD AVENUE,,BROOKLYN,NY,11211,7185990977
SIDEWALK CAFE,1103658,Unenclosed,200,CMR CORP,,249-251,COLUMBUS AVENUE,,NEW YORK,NY,10023,2125799929
SIDEWALK CAFE,1103683,Unenclosed,394,"KRILIC ENTERPRISES, INC.",,30-95,33 STREET,,QUEENS,NY,11102,7182672735
SIDEWALK CAFE,1103693,Unenclosed,235,"MANNAGGIA, INC.",,163,FIRST AVENUE,,NEW YORK,NY,10003,2123881190
SIDEWALK CAFE,1103699,Unenclosed,188,ARKADY INC.,,1484,SECOND AVENUE,,NEW YORK,NY,10075,2122495103
SIDEWALK CAFE,1103740,Unenclosed,161,513 THIRD REST. LTD,,513,3 AVENUE,,NEW YORK,NY,10016,2126890058
SIDEWALK CAFE,1103894,Enclosed,341,31ST STREET PIZZA PALACE INC,,29-29,DITMARS BOULEVARD,,ASTORIA,NY,11105,7187281060
SIDEWALK CAFE,1104424,Unenclosed,249,"160 BISTRO, INC.",,160,7 AVENUE,,NY,NY,10011,2123664100
SIDEWALK CAFE,1105401,Unenclosed,339,52 RESTAURANT GROUP CORP.,OPAL,251,EAST   52 STREET,,NEW YORK,NY,10022,2125934321
SIDEWALK CAFE,1106418,Unenclosed,243,60TH STREET RESTAURANT CORP.,PATSY'S,206,EAST 60 STREET,,NEW YORK,NY,10022,2126885916
SIDEWALK CAFE,1106426,Unenclosed,360,"HARU TOO, INC.",HARU SAKE BAR,1327,THIRD AVENUE,,NEW YORK,NY,10021,2125131988
SIDEWALK CAFE,1106438,Enclosed,309,N.N.M. REST. CORP.,BRASSERIE 360,200,EAST   60 STREET,,NEW YORK,NY,10022,2126888868
SIDEWALK CAFE,1109238,Unenclosed,154,IL BUCO CORP.,,47,BOND STREET,,NEW YORK,NY,10012,2125331932
SIDEWALK CAFE,1109467,Unenclosed,420,505-23 BAR INC,THE HALF KING,505-507,WEST   23 STREET,,NEW YORK,NY,10011,2124624300
SIDEWALK CAFE,1109932,Unenclosed,481,THE WESTSIDE OF BROADWAY REST GROUP INC.,,2737,BROADWAY,,NEW YORK,NY,10025,2126637010
SIDEWALK CAFE,1110042,Enclosed,280,C & C FIRST AVE CORP.,BAR COASTAL,1495,1 AVENUE,,NEW YORK,NY,10075,2122886635
SIDEWALK CAFE,1110366,Unenclosed,63,THE OTHEROOM INC.,,143,PERRY STREET,,NEW YORK,NY,10014,2126459758
SIDEWALK CAFE,1110383,Unenclosed,140,ANOTHEROOM INC.,,249,WEST BROADWAY,,NEW YORK,NY,10013,2122261418
SIDEWALK CAFE,1111757,Enclosed,280,EL CONDE REST. CORP.,EL CONDE RESTAURANT,4139,BROADWAY,,NEW YORK,NY,10033,2127813231
SIDEWALK CAFE,1113412,Enclosed,243,1111 AVE K INC.,,1111,AVENUE K,,BROOKLYN,NY,11230,7186773033
SIDEWALK CAFE,1116343,Unenclosed,237,REBA REALTY CORP.,,16,NORTH MOORE STREET,,NEW YORK,NY,10013,2129410142
SIDEWALK CAFE,1120325,Enclosed,210,YIANNI'S CAFE INC,,31-91,STEINWAY STREET,,ASTORIA,NY,11103,7187281133
SIDEWALK CAFE,1120483,Unenclosed,266,1 & 3 ON 5TH CORP,FABIANE'S CAFE & PASTRY,142,NORTH    5 STREET,,BROOKLYN,NY,11211,7182189632
SIDEWALK CAFE,1125981,Unenclosed,820,RENOLTA LLC,,201,WEST   79 STREET,,NEW YORK,NY,10024,9172082174
SIDEWALK CAFE,1127935,Unenclosed,270,156 SEVENTH AVE GROUP LLC,ELMO,156,SEVENTH AVENUE,,NEW YORK,NY,10011,2123378000
SIDEWALK CAFE,1132655,Unenclosed,101,AJ EASTSIDE INC,FETCH,1649,THIRD AVENUE,,NEW YORK,NY,10128,2124239302
SIDEWALK CAFE,1132659,Unenclosed,290,HOT BREAD OF 104TH ST INC,HOT & CRYSPY,2724,BROADWAY,,NEW YORK,NY,10025,2122740442
SIDEWALK CAFE,1133124,Unenclosed,193,1262 AMSTERDAM CAFE INC,,1262,AMSTERDAM AVENUE,,NEW YORK,NY,10027,2122882937
SIDEWALK CAFE,1133422,Unenclosed,210,BLUE SMOKE LLC,,116,EAST   27 STREET,,NEW YORK,NY,10016,2124477733
SIDEWALK CAFE,1133602,Unenclosed,862,Y.N.L.C. CAFE CORP.,,35-27,30 AVENUE,,QUEENS,NY,11103,7182786967
SIDEWALK CAFE,1133801,Unenclosed,295,PISTICCI RESTAURANT CORP,PISTICCI RESTAURANT,125,LASALLE STREET,,NEW YORK,NY,10027,2129323500
SIDEWALK CAFE,1133898,Unenclosed,323,FIDDLESTICKS LLC,,54-56,GREENWICH AVENUE,,NEW YORK,NY,10011,2124630516
SIDEWALK CAFE,1133916,Unenclosed,298,TEN ELEVEN HOLDINGS L.L.C.,PENCIL FACTORY,142,FRANKLIN STREET,,BROOKLYN,NY,11222,7186095858
SIDEWALK CAFE,1133929,Unenclosed,271,SKIPWELL CORP,BISTRO TEN EIGHTEEN,1018,AMSTERDAM AVENUE,,NEW YORK,NY,10025,2126627600
SIDEWALK CAFE,1134143,Unenclosed,160,"S.I.A.E.A.1,INC.",K H AMAZON CAFE,1123,QUENTIN ROAD,,BROOKLYN,NY,11229,7183828360
SIDEWALK CAFE,1135217,Unenclosed,129,BUONA NOTTE INC,BUONA NOTTE INC,120,MULBERRY STREET,,NEW YORK,NY,10013,2129651111
SIDEWALK CAFE,1135221,Unenclosed,58,LUPI LLC,,347,EAST   85 STREET,,NEW YORK,NY,10028,2125173118
SIDEWALK CAFE,1135398,Unenclosed,185,"COBRA CATERERS, INC",DUBLIN 6/TOPSY,575,HUDSON STREET,,NEW YORK,NY,10014,6466382900
SIDEWALK CAFE,1135504,Unenclosed,91,206 7TH AVE CORP,SALSA Y SALSA MEXICAN KITCHEN,206,7 AVENUE,,NEW YORK,NY,10011,6463423298
SIDEWALK CAFE,1135513,Unenclosed,105,REGIONAL THAI LTD,,208,7 AVENUE,,NEW YORK,NY,10011,2128079872
SIDEWALK CAFE,1135770,Unenclosed,36,MRG RESTAURANT CORP,,122,MULBERRY STREET,,NEW YORK,NY,10013,7185918112
SIDEWALK CAFE,1135863,Unenclosed,220,NARITA JAPANESE RESTAURANT INC.,,107-08,70 ROAD,,FOREST HILLS,NY,11375,7182632999
SIDEWALK CAFE,1136163,Unenclosed,85,LENOX ROOM CORP,,1278,THIRD AVENUE,,NEW YORK,NY,10021,2127720404
SIDEWALK CAFE,1136223,Unenclosed,170,A. VENIERO INC.,VENIERO'S PASTICCERIA & CAFE,342,EAST   11 STREET,,NEW YORK CITY,NY,10003,2126747070
SIDEWALK CAFE,1136669,Unenclosed,417,62 &  1ST LLC,MERCHANTS NY,1125,FIRST AVENUE,,NEW YORK,NY,10065,2128714000
SIDEWALK CAFE,1137714,Unenclosed,575,"FIORELLO'S ROMAN CAFE, INC.",,1,LINCOLN PLAZA,,NEW YORK,NY,10023,2125955330
SIDEWALK CAFE,1138270,Unenclosed,147,LE-SE AMSTERDAM 732 RESTAURANT INC.,DIVE BAR,732,AMSTERDAM AVENUE,,NEW YORK,NY,10025,2127494358
SIDEWALK CAFE,1138459,Unenclosed,688,MA. VI. DO. REST. INC.,MEDITERRANEO,1260,2 AVENUE,,NEW YORK,NY,10065,2127347407
SIDEWALK CAFE,1139326,Unenclosed,144,"44 AND 9TH RESTAURANT, INC.",,623,NINTH AVENUE,,NEW YORK,NY,10036,2122656777
SIDEWALK CAFE,1139335,Unenclosed,243,THE 8801 CORP,,8801,THIRD AVENUE,,BROOKLYN,NY,11209,7184925095
SIDEWALK CAFE,1139454,Unenclosed,360,TALIAS RESTAURANT GROUP LLC,,668,AMSTERDAM AVENUE,,NEW YORK,NY,10025,2125803770
SIDEWALK CAFE,1139506,Unenclosed,219,"DUNMORE NEW YORK, INC.",JAKE'S SALOON,875,TENTH AVENUE,,NEW YORK,NY,10019,2123333100
SIDEWALK CAFE,1139678,Unenclosed,355,"THE ORIGINAL VINCENT'S, ESTABLISHED 1904 INC.",,119,MOTT STREET,,NEW YORK,NY,10013,2122268133
SIDEWALK CAFE,1141303,Unenclosed,99,"MARBAR, L.L.C.",LA PALAPA ROCKOLA,359,6 AVENUE,,NEW YORK,NY,10014,2125131988
SIDEWALK CAFE,1141700,Enclosed,692,23RD & 9TH RESTAURANT CORP,,368,WEST   23 STREET,,NEW YORK,NY,10011,2126915400
SIDEWALK CAFE,1141909,Unenclosed,66,"YAMASAK RESTAURANT, CORP.",LE FIGARO CAFE,174,BLEEKER STREET,,NEW YORK,NY,10012,5166250674
SIDEWALK CAFE,1141963,Unenclosed,183,INOVATIVE RESTAURANTS LLC,INOTECA,133,LUDLOW STREET,98 RIVINGTON STREET,NEW YORK,NY,10002,2126140473
SIDEWALK CAFE,1142044,Unenclosed,498,KRILIC ENTERPRISE INC,,30-95,33 STREET,,QUEENS,NY,11102,7182672735
SIDEWALK CAFE,1142288,Unenclosed,228,OLD HEIDELBERG CORP.,,1648,SECOND AVENUE,,NEW YORK,NY,10028,2126282332
SIDEWALK CAFE,1142522,Unenclosed,489,MIDAN REST INC.,MORAN'S,146,10 AVENUE,,NEW YORK,NY,10011,2126273030
SIDEWALK CAFE,1142568,Unenclosed,361,SPARTAN SOUVLAKI CORP,SPARTAN SOUVLAKI,6818,8 AVENUE,,BROOKLYN,NY,11220,7187485838
SIDEWALK CAFE,1142739,Unenclosed,192,LGR FIRST CORP,SIMONE ESSPRESSO & LITTLE BAR,134,1 AVENUE,,NEW YORK,NY,10009,2129826665
SIDEWALK CAFE,1143227,Unenclosed,102,"JVC PIZZERIA, INC",,132A,MULBERRY STREET,,NEW YORK,NY,10013,2122268306
SIDEWALK CAFE,1143675,Unenclosed,271,BREAD IN TRIBECA LLC,,301,CHURCH STREET,,NEW YORK,NY,10013,2123348282
SIDEWALK CAFE,1145512,Unenclosed,405,COFFEE PLACE CORP.,SUNFLOWER CAFE,1223,QUENTIN ROAD,,BROOKLYN,NY,11229,7183361340
SIDEWALK CAFE,1145629,Unenclosed,264,"GRAND ENDEAVORS, INC",CLEM'S,264,GRAND STREET,,BROOKLYN,NY,11211,7183879617
SIDEWALK CAFE,1146560,Enclosed,112,ROMAGICA CORP.,CELESTE RESTAURANT,502,AMSTERDAM AVENUE,,NEW YORK,NY,10024,2125131988
SIDEWALK CAFE,1147364,Enclosed,,HILLVIEW SPECIALITY FOOD INC,107 WEST RESTAURANT,2787,BROADWAY,,NEW YORK,NY,10025,2128641555
SIDEWALK CAFE,1150943,Unenclosed,326,GROTTA AZZURRA INN INC.,,177,MULBERRY STREET,,NEW YORK,NY,10013,2129258775
SIDEWALK CAFE,1151949,Unenclosed,158,CALSHEA REST. CORP.,THE TRIPLE CROWN,330,7 AVENUE,,NEW YORK,NY,10001,2127361575
SIDEWALK CAFE,1157157,Unenclosed,320,"UNO OF ASTORIA, INC.",,37-11,35 AVENUE,,QUEENS,NY,11101,6172185336
SIDEWALK CAFE,1157473,Unenclosed,298,"BABU FOOD, INC.",,468,HUDSON STREET,,NEW YORK,NY,10014,2126279191
SIDEWALK CAFE,1157684,Unenclosed,812,UNION SQUARE CATERING FACILITY INC.,COFFEE SHOP,29,UNION SQUARE WEST,,NEW YORK,NY,10003,2122437969
SIDEWALK CAFE,1158198,Unenclosed,134,412 AMSTERDAM CORP.,,412,AMSTERDAM AVENUE,,NEW YORK,NY,10024,2127871660
SIDEWALK CAFE,1158751,Unenclosed,145,RED MULBERRY LTD,SAMBUCA'S,105,MULBERRY STREET,,NEW YORK,NY,10013,2124310408
SIDEWALK CAFE,1159248,Unenclosed,"1,300","675 HUDSON VAULT, LLC",,675,HUDSON STREET,,NEW YORK,NY,10014,2125131988
SIDEWALK CAFE,1159486,Unenclosed,64,"L'ATRE ENTERPRISES, INC",,314,BLEECKER STREET,,NEW YORK,NY,10014,2126759463
SIDEWALK CAFE,1159625,Unenclosed,87,ELI'S MANHATTAN WAREHOUSE INC.,,1411,THIRD AVENUE,,NEW YORK,NY,10028,2127722011
SIDEWALK CAFE,1160306,Enclosed,344,"PS CAFE,INC",MY FAVARITE BISTRO,53,WEST   72 STREET,,NEW YORK,NY,10023,2123622187
SIDEWALK CAFE,1160579,Unenclosed,189,MESTIZO INC,,89,GREENWICH AVENUE,,NEW YORK,NY,10014,2126918080
SIDEWALK CAFE,1160619,Unenclosed,182,OLYMPIAN SUMMIT INC.,,35-25,STEINWAY STREET,,LONG ISLND CITY,NY,11101,7184722124
SIDEWALK CAFE,1160623,Unenclosed,357,"WOGIE'S, INC.",,39,GREENWICH AVENUE,,NEW YORK,NY,10014,6463733421
SIDEWALK CAFE,1160931,Unenclosed,140,MNY CHELSEA LLC,MERCHANTS NY,112,SEVENTH AVENUE,,NEW YORK,NY,10011,2123667267
SIDEWALK CAFE,1161434,Unenclosed,170,CARMINE RESTAURANT INC.,,125,MULBERRY STREET,,NEW YORK,NY,10013,2122266060
SIDEWALK CAFE,1161546,Unenclosed,127,30 E 30 ZANA INC,,30,EAST   30 STREET,,NEW YORK,NY,10016,2124813717
SIDEWALK CAFE,1161760,Unenclosed,222,TULSACE CORP,SEVEN ONE EIGHT,35-01,DITMARS BOULEVARD,,ASTORIA,NY,11105,7182045553
SIDEWALK CAFE,1161856,Unenclosed,800,JEC II. LLC,ONE LITTLE WEST 12,1-3,LITTLE WEST   12 STREET,,NEW YORK,NY,10014,2122559717
SIDEWALK CAFE,1161913,Unenclosed,190,REMEDY BAR GROUP LLC,UPTOWN,1576,THIRD AVENUE,,NEW YORK,NY,10128,2128581388
SIDEWALK CAFE,1162474,Unenclosed,528,LCN CAFE CORP.,THEATER CAFE,106-03,METROPOLITAN AVENUE,,QUEENS,NY,11375,7182610014
SIDEWALK CAFE,1162883,Unenclosed,124,"RACKS CAFE BILLIARDS, INC.",,19-26,STEINWAY STREET,,ASTORIA,NY,11105,7182041374
SIDEWALK CAFE,1163023,Unenclosed,420,MACDOUGAL BLEECKER CORP.,,89,MACDOUGAL STREET,,NEW YORK,NY,10012,2122260504
SIDEWALK CAFE,1163028,Unenclosed,199,KING LUKE INC,,81,BROADWAY,,BROOKLYN,NY,11211,7184863077
SIDEWALK CAFE,1163792,Unenclosed,162,ORESTE INC.,,64,CARMINE STREET,,NEW YORK,NY,10014,2126758736
SIDEWALK CAFE,1163793,Unenclosed,318,MEZCALS OF 5TH AVE REST CORP.,,223,FIFTH AVENUE,,BROOKLYN,NY,11215,7187833276
SIDEWALK CAFE,1163815,Unenclosed,268,PORTICI RESTAURANT INC,,621,9 AVENUE,,NEW YORK,NY,10036,2123154582
SIDEWALK CAFE,1164852,Unenclosed,112,MULBERRY STREET BAR LLC,,176 1/2,MULBERRY STREET,,NEW YORK,NY,10013,2122269345
SIDEWALK CAFE,1165276,Unenclosed,131,317 AMSTERDAM CORP,BELLO SGUARDO,410,AMSTERDAM AVENUE,,NEW YORK,NY,10024,2128736252
SIDEWALK CAFE,1165444,Unenclosed,84,MON PETIT CAFE INC.,,801,LEXINGTON AVENUE,,NEW YORK,NY,10065,2123552233
SIDEWALK CAFE,1165566,Unenclosed,392,SAL & VIK CORP.,BELLA VIA RESTAURANT,47-46,VERNON BOULEVARD,,LIC,NY,11101,7183617510
SIDEWALK CAFE,1165611,Unenclosed,154,"FILLIP'S CATERING, INC.",,200,7 AVENUE,,NEW YORK,NY,10011,2123664410
SIDEWALK CAFE,1165626,Unenclosed,481,AGORA INC,ZIPI ZAPE,152,METROPOLITAN AVENUE,,BROOKLYN,NY,11211,7185993027
SIDEWALK CAFE,1166061,Unenclosed,352,CENTO GROUP INC,CAFE CENTOSETTE,160,SECOND AVENUE,,NEW YORK,NY,10003,2124205933
SIDEWALK CAFE,1166206,Unenclosed,238,STONE PARK CORNER LLC,,324,FIFTH AVENUE,,BROOKLYN,NY,11215,7183690082
SIDEWALK CAFE,1166753,Unenclosed,176,RIINGO RESTAURANT LLC,,205,EAST   45 STREET,,NEW YORK,NY,10017,2128674200
SIDEWALK CAFE,1166759,Unenclosed,316,TK REST. CORP.,,33,LEONARD STREET,,NEW YORK,NY,10013,2129257188
SIDEWALK CAFE,1166884,Unenclosed,134,FACOSULL CORP.,,165,WEST    4 STREET,,NEW YORK,NY,10014,9179741821
SIDEWALK CAFE,1166911,Unenclosed,475,PANDBAKERY INC,,22-85,31 STREET,,QUEENS,NY,11105,7189324423
SIDEWALK CAFE,1167146,Unenclosed,173,EMPORIUM BRASIL INC.,,15,WEST   46 STREET,,NEW YORK,NY,10036,2127644646
SIDEWALK CAFE,1167396,Unenclosed,174,8406 THIRD AVE REST CORP.,SOFIA,8406,THIRD AVENUE,,BROOKLYN,NY,11209,7186804242
SIDEWALK CAFE,1167555,Unenclosed,183,1226 SECOND AVENUE REALTY CORP.,,1226,SECOND AVENUE,,NEW YORK,NY,10065,2127581775
SIDEWALK CAFE,1167600,Enclosed,504,75TH & 3RD CORP.,BISTRO LE STEAK,1309,3 AVENUE,,NEW YORK,NY,10021,2125173800
SIDEWALK CAFE,1167909,Unenclosed,137,THIERRY INC.,,19,EAST   69 STREET,,NEW YORK,NY,10021,2127941628
SIDEWALK CAFE,1168002,Unenclosed,140,"SOUNDS OF CUBA,INC",SON CUBANO,405,WEST   14 STREET,,NEW YORK,NY,10014,2123361640
SIDEWALK CAFE,1168148,Unenclosed,200,YUCA BAR & RESTAURANT INC.,YUCA BAR & RESTAURANT,111,AVENUE A,,NEW YORK,NY,10009,2129879533
SIDEWALK CAFE,1168356,Unenclosed,124,PALAZZO & CORSINI LLC,TERRAMARE CAFE,22,EAST   65 STREET,,NEW YORK,NY,10065,2125706152
SIDEWALK CAFE,1168780,Enclosed,482,"CHRISWILL VENTURES, LLC",,24,FIFTH AVENUE,,NEW YORK,NY,10011,2125291700
SIDEWALK CAFE,1169146,Unenclosed,112,"ZVAH, INC.",LES ENFANTS TERRIBLES,37,CANAL STREET,,NEW YORK,NY,10002,2127777518
SIDEWALK CAFE,1169199,Unenclosed,187,SYVROS RESTAURANT CORP.,ZORBA'S,29-05,23 AVENUE,,ASTORIA,NY,11105,7189567266
SIDEWALK CAFE,1169442,Enclosed,200,"PS BROTHERS GOURMET, INC.",,2636,BROADWAY,,NEW YORK,NY,10025,2122229222
SIDEWALK CAFE,1169547,Unenclosed,537,SERAFINA BROADWAY LTD,,210,WEST   55 STREET,,NEW YORK,NY,10019,2123151700
SIDEWALK CAFE,1169925,Unenclosed,151,POUPETTO INC.,,25,EAST   63 STREET,,NEW YORK,NY,10065,2127513036
SIDEWALK CAFE,1170078,Unenclosed,294,IGUANA NEW YORK LTD.,,240,WEST   54 STREET,,NEW YORK,NY,10019,2127655454
SIDEWALK CAFE,1170662,Unenclosed,250,APPLEJACK COFFEE SHOP INC.,,230,WEST   55 STREET,,NEW YORK,NY,10019,2125866075
SIDEWALK CAFE,1170995,Unenclosed,98,"ENTERPRISE RESTAURANT, LLC.",AMARANTH,21,EAST   62 STREET,,NEW YORK,NY,10065,2129806700
SIDEWALK CAFE,1171118,Unenclosed,69,356 WEST 44TH ST. RESTAURANT INC.,,356,WEST   44 STREET,,NEW YORK,NY,10036,9178922958
SIDEWALK CAFE,1171759,Unenclosed,163,K.K.& D. OF 79TH ST. REST. CORP.,,1022,MADISON AVENUE,,NEW YORK,NY,10075,2125354115
SIDEWALK CAFE,1172157,Unenclosed,127,E. A. T. IS OWNED BY ELI ZABAR INC.,,1064,MADISON AVENUE,,NEW YORK,NY,10028,2127722011
SIDEWALK CAFE,1172166,Unenclosed,273,"POSTO, INC.",,310,SECOND AVENUE,,NEW YORK,NY,10003,2127161200
SIDEWALK CAFE,1172172,Unenclosed,324,1207 AMSTERDAM CORP,,1207,AMSTERDAM AVENUE,,NEW YORK,NY,10027,2126626330
SIDEWALK CAFE,1172205,Unenclosed,453,STS RESTAURANT CORP,,505,3 AVENUE,,NEW YORK,NY,10016,2126899022
SIDEWALK CAFE,1172236,Unenclosed,270,THREE FRIENDS LLC,,2418,BROADWAY,,NEW YORK,NY,10024,2123622000
SIDEWALK CAFE,1173208,Unenclosed,118,SERVICE CORP,,20,PRINCE STREET,,NEW YORK,NY,10012,2129668886
SIDEWALK CAFE,1173625,Unenclosed,260,LOUYA CORP,,204-206,EAST   85 STREET,,NEW YORK,NY,10028,2123272272
SIDEWALK CAFE,1174880,Unenclosed,166,THAFATH INC,,356,EAST   51 STREET,,NEW YORK,NY,10022,2122301117
SIDEWALK CAFE,1175526,Unenclosed,150,SPRING LEOPARD LLC,,307,SPRING STREET,,NEW YORK,NY,10013,2123522269
SIDEWALK CAFE,1175917,Unenclosed,299,804 LEXINGTON AVENUE RESTAURANT INC.,BURGER HEAVEN,804,LEXINGTON AVENUE,,NEW YORK,NY,10065,2128383580
SIDEWALK CAFE,1177240,Unenclosed,115,"GIGINO, INC.",GIGINO TRATTORIA,323,GREENWICH STREET,,NEW YORK,NY,10013,2124311112
SIDEWALK CAFE,1179946,Enclosed,346,PER TAVERN CORP,,8622,3 AVENUE,,BROOKLYN,NY,11209,7186807862
SIDEWALK CAFE,1180070,Unenclosed,168,CHEZ JOSEPHINE LTD.,,414,WEST   42 STREET,,NEW YORK,NY,10036,2125941925
SIDEWALK CAFE,1183179,Enclosed,178,DALE RESTAURANT INC.,,189,WEST  231 STREET,,BRONX,NY,10463,7185494445
SIDEWALK CAFE,1183527,Unenclosed,70,GADBERRY PIZZA INC.,BLEECKER STREET PIZZA,69-71,7 AVENUE SOUTH,,NEW YORK,NY,10014,2129244466
SIDEWALK CAFE,1184384,Unenclosed,135,MAVIMA RESTAURANT INC.,BRIO,786,LEXINGTON AVENUE,A/K/A 137 EAST 61 STREET,NEW YORK,NY,10065,2129802300
SIDEWALK CAFE,1185970,Unenclosed,199,"LA BOUCHERIE, INC.",,411-413,PARK AVENUE SOUTH,,NEW YORK,NY,10016,2126794111
SIDEWALK CAFE,1186113,Unenclosed,162,FLEJ INC.,,229,COLUMBUS AVENUE,,NEW YORK,NY,10023,2127213009
SIDEWALK CAFE,1186385,Unenclosed,130,"CASWELL/PEARSON ENTERPRISES, LTD.",,202,WEST   14 STREET,,NEW YORK,NY,10011,2122552060
SIDEWALK CAFE,1186742,Unenclosed,"1,010",SMITHFIELD ASSOCIATES LLC,PASTIS,9-19,9 AVENUE,,NEW YORK,NY,10014,2129894244
SIDEWALK CAFE,1187200,Enclosed,340,NOTEWORTHY CAFE CORP,,200,ALLEN STREET,,NEW YORK,NY,10002,2122601122
SIDEWALK CAFE,1187606,Unenclosed,197,"PQ BROADWAY, INC.",,38,EAST   19 STREET,,NEW YORK,NY,10003,2126737900
SIDEWALK CAFE,1187708,Unenclosed,132,CHELSEA 26 LLC,PARS GRILL HOUSE & BAR,249,WEST   26 STREET,,NEW YORK,NY,10001,2129299860
SIDEWALK CAFE,1187714,Unenclosed,342,BROADWAY 104 LLC,CAFE DU SOLEIL,245,WEST  104 STREET,,NEW YORK,NY,10025,2123165000
SIDEWALK CAFE,1187717,Unenclosed,536,DA SILVANO CORP.,,260,6 AVENUE,,NEW YORK,NY,10014,2129822498
SIDEWALK CAFE,1187891,Unenclosed,600,"CULINARY CONCEPTS BY JEAN GEORGES, LLC",SPICE MARKET,29-35,NINTH AVENUE,,NEW YORK,NY,10014,2126753110
SIDEWALK CAFE,1187924,Unenclosed,193,CLAUDISAL REST. CORP.,DA'MASSIMO AND CAFFE RELLINI,206,THOMPSON STREET,,NY,NY,10012,2122287701
SIDEWALK CAFE,1188068,Unenclosed,343,LUCIFER RESTAURANT LLC,,401,EAST   20 STREET,,NEW YORK,NY,10010,6464187440
SIDEWALK CAFE,1188669,Unenclosed,246,"NF TRADING,LLC",202,75,9 AVENUE,,NEW YORK,NY,10011,6466381173
SIDEWALK CAFE,1188827,Unenclosed,146,POINT JUDITH LLC,,96,2 AVENUE,,NEW YORK,NY,10003,2124659500
SIDEWALK CAFE,1188845,Enclosed,233,KEDROS LTD,,1505,THIRD AVENUE,,NEW YORK,NY,10028,2122496505
SIDEWALK CAFE,1188879,Unenclosed,249,NECF INC.,MR. DENNEHY'S,63,CARMINE STREET,,NEW YORK,NY,10014,2124141223
SIDEWALK CAFE,1188887,Unenclosed,179,MACELLERIA RESTAURANT INC,MACELLERIA,48,GANSEVOORT STREET,,NEW YORK,NY,10014,2127412555
SIDEWALK CAFE,1189213,Unenclosed,241,STANTON RESTAURANT CORP,EPSTEIN BAR,82,STANTON STREET,,NEW YORK,NY,10002,2124772232
SIDEWALK CAFE,1189217,Unenclosed,116,PEPRICO INC.,CACIO & PEPE,182,2 AVENUE,,NEW YORK,NY,10003,2125055931
SIDEWALK CAFE,1189247,Unenclosed,213,LES BRASSEURS,LA MANGEOIRE,1008,2 AVENUE,,NEW YORK,NY,10022,2127597086
SIDEWALK CAFE,1189644,Unenclosed,235,KIEFFER & NORELL LLC,PICNIC MARKET CAFE,2665,BROADWAY,,NEW YORK,NY,10025,9145337176
SIDEWALK CAFE,1189655,Unenclosed,256,"SBCPS,LLC",,40,CENTRAL PARK SOUTH,,NEW YORK,NY,10019,2128265959
SIDEWALK CAFE,1189682,Unenclosed,325,IL COMMANDATORE RESTAURANT INC,CASA BELLA RESTAURANT,127,MULBERRY STREET,,NEW YORK,NY,10013,9146321603
SIDEWALK CAFE,1189835,Unenclosed,242,URBAN RUSTIC LLC,,318,GRAND STREET,,BROOKLYN,NY,11211,7184869400
SIDEWALK CAFE,1190049,Unenclosed,91,"HORSESHOES, NY INC.",DALTON'S BAR & GRILL,611,9 AVENUE,,NEW YORK,NY,10036,2122455511
SIDEWALK CAFE,1190070,Unenclosed,330,62 WEST OPERATING LLC,,61,COLUMBUS AVENUE,,NEW YORK,NY,10023,2123970666
SIDEWALK CAFE,1190075,Unenclosed,375,384 COLUMBUS AVENUE ASSOCIATES LLC,OCEAN GRILL,384,COLUMBUS AVENUE,,NEW YORK,NY,10024,2125792300
SIDEWALK CAFE,1190138,Enclosed,336,PMC CORP,VERTIGO,354,THIRD AVENUE,,NEW YORK,NY,10010,9179912522
SIDEWALK CAFE,1190200,Unenclosed,496,ORAMA INC.,,1331,SECOND AVENUE,,NEW YORK,NY,10021,2125353800
SIDEWALK CAFE,1190469,Unenclosed,140,FELTRIM RESTAURANT CORP,TWELVE,206,EAST   34 STREET,,NEW YORK,NY,10016,2125459912
SIDEWALK CAFE,1190476,Unenclosed,73,GISELLA & KATE CAFE INC,,73,2 AVENUE,,NEW YORK,NY,10003,2125337183
SIDEWALK CAFE,1190534,Unenclosed,349,"LEGENDARY NIGHTSPOTS, INC.",THE DUPLEX,61,CHRISTOPHER STREET,,NEW YORK,NY,10014,2122555438
SIDEWALK CAFE,1190559,Unenclosed,254,MARIA LOUISA RESTAURANT INC,,10018,FOURTH AVENUE,,BROOKLYN,NY,11209,7188331313
SIDEWALK CAFE,1190733,Unenclosed,385,MANGIA INC.,,119,5 AVENUE,,BROOKLYN,NY,11217,7186365759
SIDEWALK CAFE,1190801,Unenclosed,577,"T. HOSPITALITY, INC.",SEA,835,WASHINGTON STREET,AKA 39 LITTLE WEST 12TH STREET,NEW YORK,NY,10014,2122433339
SIDEWALK CAFE,1190933,Unenclosed,135,BY THE GLASS INC.,,1486,2 AVENUE,,NEW YORK,NY,10075,2124724552
SIDEWALK CAFE,1190996,Unenclosed,703,"CDGP, LLC",FLO,37-20,30TH AVE,,ASTORIA,NY,11103,7182046096
SIDEWALK CAFE,1191275,Unenclosed,231,"PARADIS 5, INC.",MOUTARDE,239,5 AVENUE,,BROOKLYN,NY,11215,7186233600
SIDEWALK CAFE,1191523,Unenclosed,83,SHIRT RESTAURANT    CORP,,1305,MADISON AVENUE,,MANHATTAN,NY,10128,2129961200
SIDEWALK CAFE,1191822,Unenclosed,136,ARTAKI CORP.,PETER'S ON 83RD,1606,FIRST AVENUE,,NEW YORK,NY,10028,2127349600
SIDEWALK CAFE,1191870,Unenclosed,257,HARU GRAMERCY PARK CORP.,HARU,220,PARK AVENUE SOUTH,,NEW YORK,NY,10003,6464280989
SIDEWALK CAFE,1192051,Enclosed,808,EAST PUB INC,,359-361,BOWERY,,NEW YORK,NY,10003,2123581902
SIDEWALK CAFE,1192285,Unenclosed,145,D.E.L. INC,ALEXANDRA,455,HUDSON STREET,,NEW YORK,NY,10014,9174429781
SIDEWALK CAFE,1192327,Unenclosed,416,GIANNINO'S PIZZA CORP.,,305,COURT STREET,,BROOKLYN,NY,11231,7188526890
SIDEWALK CAFE,1192416,Unenclosed,268,CIELI PARTNERS LP,TRATTORIA DELL'ARTE,900,7 AVENUE,,NEW YORK,NY,10019,2122459800
SIDEWALK CAFE,1192697,Unenclosed,300,RAMBLING HOUSE INC,TARA HILL,4292,KATONAH AVENUE,,BRONX,NY,10470,7187984510
SIDEWALK CAFE,1193023,Unenclosed,363,ARTHUR AVENUE RESTAURANT LLC,UMBERTOS CLAM HOUSE,2356,ARTHUR AVENUE,,BRONX,NY,10458,7182202526
SIDEWALK CAFE,1193198,Unenclosed,420,P. M. W. INC.,,62,SPRING STREET,,NEW YORK,NY,10012,2129660290
SIDEWALK CAFE,1193240,Unenclosed,145,TSAMIR RESTAURANT CORP.,RECTANGLES RESTAURANT,1431,FIRST AVENUE,,NEW YORK,NY,10021,2127447470
SIDEWALK CAFE,1193339,Unenclosed,253,EISEN & SON INC.,,196,EIGHTH AVENUE,,NEW YORK,NY,10011,2122424551
SIDEWALK CAFE,1193773,Unenclosed,483,ALBACHIARA LLC,ALBA,10,READE STREET,AKA 2 LAFAYETTE_STREET,NEW YORK,NY,10007,2122675900
SIDEWALK CAFE,1194128,Unenclosed,86,EROS RESTAURANT CORP,,947,SECOND AVENUE,,NEW YORK,NY,10022,2127554155
SIDEWALK CAFE,1194473,Unenclosed,209,241 W B WAY CAFE INC,CERCLE ROUGE,241,WEST BROADWAY,,NEW YORK,NY,10013,9173123231
SIDEWALK CAFE,1194478,Unenclosed,81,ROBUSTO NYC INC,,88,ORCHARD STREET,,NEW YORK,NY,10002,2122288880
SIDEWALK CAFE,1194613,Unenclosed,253,AMGP RESTAURANT CORP,YIASOU,2003,EMMONS AVENUE,,BROOKLYN,NY,11235,7183326064
SIDEWALK CAFE,1195128,Unenclosed,180,THE IXTOC LLC,,177,VANDERBILT AVENUE,,BROOKLYN,NY,11205,9177238456
SIDEWALK CAFE,1196956,Unenclosed,336,GJ & S RESTAURANT INC.,SPIGOLO,1561,SECOND AVENUE,,NEW YORK,NY,10028,2127441100
SIDEWALK CAFE,1197298,Unenclosed,620,PALEROS INC,,37-01,30 AVENUE,,ASTORIA,NY,11103,7187777321
SIDEWALK CAFE,1197788,Unenclosed,65,LLB INC.,PESCALOU,1308,MADISON AVENUE,,NEW YORK,NY,10128,2125344105
SIDEWALK CAFE,1198574,Unenclosed,133,VANETT INC.,JIMMY RYAN'S,3005,MIDDLETOWN ROAD,,BRONX,NY,10461,7188635687
SIDEWALK CAFE,1198845,Unenclosed,179,KIWI'S HISTORICAL BUILDING INC,HALLO BERLIN,626,10 AVENUE,,NEW YORK,NY,10036,2129771944
SIDEWALK CAFE,1199111,Unenclosed,263,DONATO'S PIZZERIA RESTAURANT CORP,,50-22,39 AVENUE,,QUEENS,NY,11377,7185079049
SIDEWALK CAFE,1199470,Unenclosed,119,BRASS MONKEY LLC,,55,LITTLE WEST   12 STREET,,NEW YORK,NY,10014,2126756686
SIDEWALK CAFE,1200150,Unenclosed,126,SOFIA 61ST STREET CORP.,,29,EAST   61 STREET,,NEW YORK,NY,10065,2127029898
SIDEWALK CAFE,1200156,Unenclosed,198,LA PALA LLC,,198,ALLEN STREET,,NEW YORK,NY,10002,2124751251
SIDEWALK CAFE,1200222,Unenclosed,107,542 3RD AVENUE FOOD CORP,,542,THIRD AVENUE,,NEW YORK,NY,10016,6462941902
SIDEWALK CAFE,1200498,Unenclosed,270,757 REST LLC,,757,6 AVENUE,,NEW YORK,NY,10010,2122426434
SIDEWALK CAFE,1200796,Unenclosed,102,PK & SON LLC,MATCH 65,27,EAST   65 STREET,,NEW YORK,NY,10065,2127374400
SIDEWALK CAFE,1200802,Unenclosed,382,NONNA RESTAURANT CORP,,190A,DUANE STREET,,NYC,NY,10013,2126253333
SIDEWALK CAFE,1201246,Unenclosed,160,SAVOIA PIZZERIA & RESTAURANT INC.,SAVIOA,277,SMITH STREET,,BROOKLYN,NY,11231,7187972727
SIDEWALK CAFE,1201698,Unenclosed,135,BLT MAIN STREET LLC,,111,EAST 22ND STREET,,NEW YORK,NY,10010,2122236432
SIDEWALK CAFE,1202961,Unenclosed,407,CEVICHERIA GROVE INC,MERCADITO GROVE,100,7 AVENUE SOUTH,,NEW YORK,NY,10014,2123880162
SIDEWALK CAFE,1203503,Unenclosed,432,OUESSANT INC,L'EPICERIE CAFE CHARBON,168-170,ORCHARD STREET,,NEW YORK,NY,10002,2124207520
SIDEWALK CAFE,1203510,Unenclosed,415,57TH RESTAURANT ASSOCIATES LLC.,RUE 57,60,WEST   57 STREET,,NEW YORK,NY,10019,2123075656
SIDEWALK CAFE,1204137,Unenclosed,99,EKD TAVERN INC,,450,AMSTERDAM AVENUE,,NEW YORK,NY,10024,2125955670
SIDEWALK CAFE,1204822,Enclosed,241,"CLIRKAT DONUTS, INC",ANGELO'S DONUT,2944,WESTCHESTER AVENUE,,BRONX,NY,10461,7187925534
SIDEWALK CAFE,1206030,Unenclosed,285,ARRIBA ARRIBA MEXICAN RESTAURANT INC,,762,NINTH AVENUE,,NEW YORK,NY,10019,2124890810
SIDEWALK CAFE,1207810,Unenclosed,202,"PQ WEST 84TH, INC.",,494,AMSTERDAM AVENUE,,NEW YORK,NY,10024,2123599000
SIDEWALK CAFE,1208262,Unenclosed,560,VIDA CAFE INC.,,247,DYCKMAN STREET,,NEW YORK,NY,10034,9172953360
SIDEWALK CAFE,1208521,Unenclosed,136,"ASC, INC.",,134,MULBERRY STREET,,NEW YORK,NY,10013,2123431212
SIDEWALK CAFE,1209214,Unenclosed,406,AGE INC,PETALUMA,1356,FIRST AVENUE,,NEW YORK,NY,10021,2127728800
SIDEWALK CAFE,1210814,Enclosed,169,ILION INC.,V.I.P.'S CAFE,131,EAST GUNHILL ROAD,,BRONX,NY,10467,7186558500
SIDEWALK CAFE,1213603,Unenclosed,371,191 GRAND RESTAURANT CORP.,,191,GRAND STREET,,NEW YORK,NY,10013,2123431212
SIDEWALK CAFE,1214291,Unenclosed,280,ITM GARDEN INC.,,10,LITTLE WEST   12 STREET,,NEW YORK,NY,10014,2122261844
SIDEWALK CAFE,1214833,Unenclosed,565,"L.E. GLOBE, LLC",CAFE D' ALSACE,1695,SECOND AVENUE,,NEW YORK,NY,10128,2127225133
SIDEWALK CAFE,1215000,Unenclosed,357,GLOBAL VILLAGE GRILL INC.,,421,AMSTERDAM AVENUE,,NEW YORK,NY,10024,2128733100
SIDEWALK CAFE,1215467,Unenclosed,380,60 SWEET THING INC.,REDEMPTION COCTAIL LOUNGE,1003,2 AVENUE,,NEW YORK,NY,10022,2125131988
SIDEWALK CAFE,1215929,Unenclosed,524,"BARAONDA RESTAURANT, INC.",,1439,SECOND AVENUE,,NEW YORK,NY,10021,2122888555
SIDEWALK CAFE,1216111,Unenclosed,188,YUNHUA ON COLUMBUS INC.,,193,COLUMBUS AVENUE,,NEW YORK,NY,10023,2124968778
SIDEWALK CAFE,1217336,Unenclosed,132,FAITH E.F.I. CORP.,EFFY'S CAFE,1638,THIRD AVENUE,BETWEEN 91 & 92 STREET,NEW YORK,NY,10128,2124278900
SIDEWALK CAFE,1217616,Unenclosed,138,RBG VILLAGE LLC,,380,THIRD AVENUE,,NEW YORK,NY,10016,9175897088
SIDEWALK CAFE,1217775,Unenclosed,518,99 SOUTH REST. CORP.,,97-99,SEVENTH AVENUE SOUTH,,NEW YORK,NY,10014,2126450600
SIDEWALK CAFE,1217877,Unenclosed,429,1326 RESTAURANT LLC,BEACH CAFE,1326,SECOND AVENUE,,NEW YORK,NY,10021,2129887299
SIDEWALK CAFE,1218074,Unenclosed,145,425 AMSTERDAM CAFE INC.,MCALEER'S PUB,425,AMSTERDAM AVENUE,,NEW YORK,NY,10024,2123627867
SIDEWALK CAFE,1218320,Unenclosed,120,SOL Y SOMBRE LTD,,462,AMSTERDAM AVENUE,,NEW YORK,NY,10024,2124004036
SIDEWALK CAFE,1218332,Unenclosed,504,UPPER WEST REST. CORP.,FRED'S,476,AMSTERDAM AVENUE,,NEW YORK,NY,10024,2125793076
SIDEWALK CAFE,1218544,Unenclosed,126,174 GRAND STREET CORP.,ONIEAL'S,174,GRAND STREET,,NEW YORK,NY,10013,2129419119
SIDEWALK CAFE,1218880,Enclosed,311,AMERICAN SPECIALITY FOODS,,300,AMSTERDAM AVENUE,,NEW YORK,NY,10023,2127691212
SIDEWALK CAFE,1219287,Unenclosed,175,HAILEY GRACE CORP,,1708,SECOND AVENUE,,NEW YORK,NY,10128,2123485500
SIDEWALK CAFE,1219470,Unenclosed,139,"HUDSON FALAFEL, INC.",HUDSON FALAFEL RESTAURANT,516,HUDSON STREET,,NEW YORK,NY,10014,2122423939
SIDEWALK CAFE,1219498,Unenclosed,410,BARBUTO LLC,,775,WASHINGTON STREET,,NEW YORK,NY,10014,2125131988
SIDEWALK CAFE,1219506,Unenclosed,476,"PLAZA PATISSERIE, INC.",,29-20,30 AVENUE,,QUEENS,NY,11102,2125131988
SIDEWALK CAFE,1219509,Enclosed,359,"THREE STAR ON FIRST, INC.",,1462,FIRST AVENUE,,NEW YORK,NY,10075,2128617500
SIDEWALK CAFE,1219526,Unenclosed,322,JOHN-PHIL TAVERN CORP,,350,EAST   53 STREET,,NEW YORK,NY,10022,2127531761
SIDEWALK CAFE,1219794,Unenclosed,130,71 WINE BAR CAFE OPERATING CORP.,,237,COLUMBUS AVENUE,,NEW YORK,NY,10023,9176862081
SIDEWALK CAFE,1219795,Unenclosed,442,MEATPACKING RESTAURANT LLC.,,44,9 AVENUE,,NEW YORK,NY,10011,9172822843
SIDEWALK CAFE,1219900,Unenclosed,390,"M & G TOGETHER 4 EVER, LLC.",,307,FLATBUSH AVENUE,,BROOKLYN,NY,11217,7182308646
SIDEWALK CAFE,1219919,Unenclosed,244,"LIFE CAFE, INC.",,343,EAST   10 STREET,,NEW YORK,NY,10009,2124778791
SIDEWALK CAFE,1219985,Unenclosed,962,"LAFAYETTE STREET PARTNERS, LLC",,380,LAFAYETTE STREET,,NEW YORK,NY,10003,2122204110
SIDEWALK CAFE,1219992,Unenclosed,375,"MANGARONI, LLC",IL BASTARDO,191,SEVENTH AVENUE,,NEW YORK,NY,10011,2125131988
SIDEWALK CAFE,1220174,Unenclosed,320,BRAHO RESTAURANT CORP.,,1453,YORK AVENUE,,NEW YORK,NY,10075,2128613600
SIDEWALK CAFE,1220381,Unenclosed,448,EP PROPERTIES LTD.,,1347,2 AVENUE,,NEW YORK,NY,10021,2124399200
SIDEWALK CAFE,1220615,Unenclosed,123,LITTLE CUPCAKE CORP.,,9102,3 AVENUE,,BROOKLYN,NY,11209,7186804127
SIDEWALK CAFE,1220794,Unenclosed,239,THE ATTIC CORPORATION OF DOUGLASTON,LOCALE,33-02,34 AVENUE,,QUEENS,NY,11106,7187299080
SIDEWALK CAFE,1221004,Unenclosed,108,GRILL 21 LLC,,346,EAST   21 STREET,,NEW YORK,NY,10010,2124735950
SIDEWALK CAFE,1221041,Unenclosed,126,"LEAHLALA, LLC",,442,COURT STREET,,BROOKLYN,NY,11231,7185226900
SIDEWALK CAFE,1221043,Unenclosed,171,"PASTA BAR, LLC",,127,AVENUE C,,NEW YORK,NY,10009,2125297747
SIDEWALK CAFE,1221126,Unenclosed,154,MEZCALS 86 REST. CORP.,,1474,86 STREET,,BROOKLYN,NY,11228,7183310902
SIDEWALK CAFE,1221127,Unenclosed,443,MARACAS GREENWICH AVENUE PARTNERS LLC,,33,GREENWICH AVENUE,,NEW YORK,NY,10014,2125936600
SIDEWALK CAFE,1221130,Unenclosed,34,"IRIDIUM RESTAURANT, CORP.",,20,SPRING STREET,,NEW YORK,NY,10012,2123341019
SIDEWALK CAFE,1221132,Unenclosed,360,SYMPATOCH CAFE INC.,,42-21,BROADWAY,,QUEENS,NY,11103,7182046811
SIDEWALK CAFE,1221141,Unenclosed,297,"TOKYO POP, LLC",,2728,BROADWAY,,NEW YORK,NY,10025,2129321000
SIDEWALK CAFE,1221167,Unenclosed,457,MADIBA CORPORATION,,195,DEKALB AVENUE,,BROOKLYN,NY,11205,7188559190
SIDEWALK CAFE,1221181,Unenclosed,230,ABRUZZO DOCG INC.,TARALLUCCI EVINO,15,EAST 18TH STREET,,NEW YORK,NY,10003,2122285400
SIDEWALK CAFE,1221200,Unenclosed,280,"WUCOM, INC",SUSHID,207,DEKALB AVENUE,,BROOKLYN,NY,11205,7188580058
SIDEWALK CAFE,1221449,Unenclosed,33,PEPE'S REST. GROUP LLC.,,170,WEST    4 STREET,,NEW YORK,NY,10014,6464157924
SIDEWALK CAFE,1221543,Unenclosed,138,"THINK RESTAURANTS, LLC",,102,EIGHTH AVENUE,,NEW YORK,NY,10011,2125131988
SIDEWALK CAFE,1221586,Unenclosed,202,"54TH STREET BAKERY, LLC.",CAFE METRO,839,SEVENTH AVENUE,,NEW YORK,NY,10019,2129837474
SIDEWALK CAFE,1221677,Unenclosed,185,PORTO RESTAURANT INC.,,574,6 AVENUE,,NEW YORK,NY,10011,2126918465
SIDEWALK CAFE,1222107,Unenclosed,608,41-08 RESTAURANT CORP.,CHRISTOS STEAK HOUSE,41-08,23 AVENUE,,QUEENS,NY,11105,7187778400
SIDEWALK CAFE,1222176,Unenclosed,261,SILVER MOON BAKERY INC.,,2740,BROADWAY,,NEW YORK,NY,10025,2128664717
SIDEWALK CAFE,1222183,Unenclosed,58,MAGENTA PICCOLO CORP.,,1728,SECOND AVENUE,,NEW YORK,NY,10128,2124260919
SIDEWALK CAFE,1222186,Unenclosed,99,NSCF NY INC.,SOFIA'S CUCINA,143,MULBERRY STREET,,NEW YORK,NY,10013,2122199799
SIDEWALK CAFE,1222193,Unenclosed,216,92 ADRIANNA INC.,,92,SECOND AVENUE,,NEW YORK,NY,10003,2125292563
SIDEWALK CAFE,1222376,Enclosed,,BAROSA INC.,,62-29,WOODHAVEN BOULEVARD,,REGO PARK,NY,11374,7184241455
SIDEWALK CAFE,1222470,Unenclosed,451,PHILLIPOS RESTAURANT INC.,,1678,3 AVENUE,,NEW YORK,NY,10128,2128311800
SIDEWALK CAFE,1222976,Unenclosed,348,"LOS POLLITOS III, INC",LA STALLA RESTAURANT,499,MYRTLE AVENUE,,BROOKLYN,NY,11205,9177538795
SIDEWALK CAFE,1223078,Unenclosed,87,1465 3RD AVE. REST. CORP.,GAEL PUB,1465,THIRD AVENUE,,NEW YORK,NY,10028,9146326036
SIDEWALK CAFE,1223194,Unenclosed,414,GRAND ITALIAN FOOD CENTER LLC,GRAND ITALIAN FOOD CENTER,186,GRAND STREET,,NEW YORK,NY,10013,9146326036
SIDEWALK CAFE,1223457,Unenclosed,139,"WEST BROADWAY MANAGEMENT, LLC.",,179,WEST BROADWAY,,NEW YORK,NY,10013,2123433883
SIDEWALK CAFE,1223566,Enclosed,288,"CAFE 71, INC.",,2061,BROADWAY,,NEW YORK,NY,10023,2128752100
SIDEWALK CAFE,1223889,Enclosed,,DOMINICAN DINER RESTAURANT CORP.,,71-02,KISSENA BOULEVARD,,FLUSHING,NY,11367,7187938270
SIDEWALK CAFE,1223897,Unenclosed,120,NEO HOSPITALITY LLC.,,270,MADISON AVENUE,,NEW YORK,NY,10016,2122132440
SIDEWALK CAFE,1224192,Unenclosed,38,"LA GAULE, INC.",,188,ORCHARD STREET,,NEW YORK,NY,10002,2126775200
SIDEWALK CAFE,1224204,Unenclosed,506,156 TENTH AVENUE RESTAURANT LLC,10TH AVENUE COOKSHOP,156,10 AVENUE,AKA 460 WEST 20TH STREET,NEW YORK,NY,10011,2129244440
SIDEWALK CAFE,1224578,Unenclosed,228,NOOR EL HADA CORP,,24-25,STEINWAY STREET,,QUEENS,NY,11103,7187219010
SIDEWALK CAFE,1224759,Unenclosed,542,"SOL'S RESTAURANT,INC",IL SOLE,233,DYCKMAN STREET,,NEW YORK,NY,10034,2125440406
SIDEWALK CAFE,1224900,Enclosed,211,MADISON ON COLUMBUS CORP,,244-246,COLUMBUS AVENUE,,NEW YORK,NY,10023,2125801516
SIDEWALK CAFE,1224915,Unenclosed,177,8868 CORP.,VERMICELLI,1492,2 AVENUE,,NEW YORK,NY,10075,2122888868
SIDEWALK CAFE,1225069,Unenclosed,177,VIRGILIA CAFE INC.,ANTONUCCI,168,EAST   81 STREET,,NEW YORK,NY,10028,2125704735
SIDEWALK CAFE,1225525,Unenclosed,349,HAVANA CENTRAL NY 3 LLC,,2911,BROADWAY,,NEW YORK,NY,10025,2126628830
SIDEWALK CAFE,1225841,Unenclosed,111,"G.D.P. ENTERPRISES, INC.",AGOZAR,324,BOWERY,,NEW YORK,NY,10012,2126776773
SIDEWALK CAFE,1225847,Unenclosed,288,MOUQUINHO ENTERPRISES INC.,,549,GREENWICH STREET,,NEW YORK,NY,10013,2129249532
SIDEWALK CAFE,1225897,Unenclosed,103,J.M.M.T. CAFE INC,,360,THIRD AVENUE,,NEW YORK,NY,10016,2126962122
SIDEWALK CAFE,1226076,Unenclosed,288,LADL LLC.,,80,UNIVERSITY PLACE,,NEW YORK,NY,10003,2126273706
SIDEWALK CAFE,1226371,Unenclosed,162,"MANHATTAN ISLAND GROUP, LLC.",,146,BEEKMAN STREET,,NEW YORK,NY,10038,2129620053
SIDEWALK CAFE,1226454,Unenclosed,309,THE HOLY GRAIL INC.,,160,COURT STREET,,BROOKLYN,NY,11201,7186252835
SIDEWALK CAFE,1227042,Unenclosed,416,114 KENMARE ASSOCIATES LLC,LA ESQUINA,114,KENMARE STREET,,NEW YORK,NY,10012,6466137100
SIDEWALK CAFE,1227073,Unenclosed,229,LUCKY 13 LLC,,355,WEST   14 STREET,,NEW YORK,NY,10014,9148047430
SIDEWALK CAFE,1227347,Unenclosed,167,NAT OF NY CORP.,OH MAMA MIA,1471,SECOND AVENUE,,NEW YORK,NY,10075,2122884045
SIDEWALK CAFE,1227438,Unenclosed,310,205 EAST 75TH STREET LLC,,205,EAST   75 STREET,,NEW YORK,NY,10021,2122271700
SIDEWALK CAFE,1227844,Unenclosed,198,"EMILIO'S ITALIAN EATERY, INC.",,413,AMSTERDAM AVENUE,,NEW YORK,NY,10024,2124960890
SIDEWALK CAFE,1228752,Unenclosed,210,"K & L COURT FOOD, INC.",CHANCE,223,SMITH STREET,,BROOKLYN,NY,11201,7182421515
SIDEWALK CAFE,1228814,Unenclosed,214,VERO INC.,,1483,2 AVENUE,,NEW YORK,NY,10075,2124523354
SIDEWALK CAFE,1229522,Unenclosed,67,"9TH AVENUE SALOON, INC.",,627,NINTH AVENUE,,NEW YORK,NY,10036,2129749169
SIDEWALK CAFE,1229629,Enclosed,880,ERS ENTERPRISES INC.,,44,WEST   63 STREET,,NEW YORK,NY,10023,2129579700
SIDEWALK CAFE,1229855,Unenclosed,92,"LOCO 111, INC.",,111,STANTON STREET,,NEW YORK,NY,10002,2122539671
SIDEWALK CAFE,1229988,Unenclosed,242,MANETTA'S FINE FOOD CORP.,,1076,JACKSON AVENUE,,QUEENS,NY,11101,7187866171
SIDEWALK CAFE,1230448,Unenclosed,86,643 HUDSON LLC,,643,HUDSON STREET,,NEW YORK,NY,10014,2128076383
SIDEWALK CAFE,1230536,Unenclosed,320,IL MATTONE CORP.,,413,GREENWICH STREET,,NEW YORK CITY,NY,10013,2123430030
SIDEWALK CAFE,1230537,Unenclosed,401,ELSAYED III CORP.,HORUS CORP,293,EAST   10 STREET,,NEW YORK,NY,10009,2122284774
SIDEWALK CAFE,1230824,Unenclosed,228,MO & YEO CORP,,9324,3 AVENUE,,BROOKLYN,NY,11209,7185675741
SIDEWALK CAFE,1230929,Unenclosed,342,"VEZZO, INC.",,178,LEXINGTON AVENUE,,NEW YORK,NY,10016,2127161200
SIDEWALK CAFE,1231072,Unenclosed,170,"WINE AND ROSES BAR AND CAFES, LLC.",,286,COLUMBUS AVENUE,,NEW YORK,NY,10023,2125010001
SIDEWALK CAFE,1231318,Unenclosed,473,"MARTELL'S NYC, LLC.",,200,EAST   83 STREET,,NEW YORK,NY,10028,9175664966
SIDEWALK CAFE,1231784,Unenclosed,98,"NEW FUSHA, INC.",,1065,FIRST AVENUE,,NEW YORK,NY,10022,2127528883
SIDEWALK CAFE,1232028,Unenclosed,114,"1431 RESTAURANT, INC.",ZUCCHERO E POMODON,1435,SECOND AVENUE,,NEW YORK,NY,10021,2125852100
SIDEWALK CAFE,1232567,Unenclosed,369,"TRATTORIA ROMANA, INC",,1476,HYLAN BOULEVARD,,STATEN ISLAND,NY,10305,7189803113
SIDEWALK CAFE,1233115,Unenclosed,284,ENID'S CORPORATION,ENID'S,560,MANHATTAN AVENUE,,BROOKLYN,NY,11222,7183493859
SIDEWALK CAFE,1233131,Unenclosed,268,SMORGAS CHEF WEST VILLAGE LLC,SMORGAS CHEF,283,WEST   12 STREET,,NEW YORK,NY,10014,2125148411
SIDEWALK CAFE,1233220,Enclosed,269,MEHRAJ & SONS INC,,1149,1 AVENUE,,NEW YORK,NY,10065,2123713535
SIDEWALK CAFE,1233396,Unenclosed,232,STARBUCKS CORPORATION,STARBUCKS COFFEE,145,2 AVENUE,,NEW YORK,NY,10003,7189212736
SIDEWALK CAFE,1233427,Enclosed,,LENNY'S 54TH STREET LLC,,1024,SECOND AVENUE,,NEW YORK,NY,10022,2123555700
SIDEWALK CAFE,1233901,Unenclosed,109,SALVATORE'S CORP.,COPPOLAS,378,THIRD AVENUE,,NEW YORK,NY,10016,2126790070
SIDEWALK CAFE,1234454,Unenclosed,170,BURKE'S BEAL BOCHT CORP.,,445,WEST  238 STREET,,BRONX,NY,10463,7188847127
SIDEWALK CAFE,1234468,Unenclosed,260,NEW MEKONG RESTAURANT CORP.,,16-18,KING STREET,,NEW YORK,NY,10014,2123438169
SIDEWALK CAFE,1237141,Enclosed,,STARBUCKS CORPORATION,STARBUCKS COFFEE COMPANY,7419,3 AVENUE,,BROOKLYN,NY,11209,2063185682
SIDEWALK CAFE,1237547,Unenclosed,256,LENNY'S 77TH STREET LLC,,1481,SECOND AVENUE,,NEW YORK,NY,10021,2127602700
SIDEWALK CAFE,1238509,Unenclosed,480,MANGIA RESTAURANT CORPORATION,,34-01,30 AVENUE,,ASTORIA,NY,11103,6463272626
SIDEWALK CAFE,1239318,Enclosed,272,LENNY'S 77TH STREET LLC,,1481,SECOND AVENUE,,NEW YORK,NY,10075,2127602700
SIDEWALK CAFE,1240086,Unenclosed,97,PAESANO REST. CORP.,,136,MULBERRY STREET,,NEW YORK,NY,10013,2129651188
SIDEWALK CAFE,1242405,Unenclosed,373,301 EAST 47TH STREET RESTAURANT CORP,,888-890,SECOND AVENUE,,NEW YORK,NY,10017,2123555540
SIDEWALK CAFE,1243143,Unenclosed,157,MASANIELLO RESTAURANT CORP.,,72,5 AVENUE,,BROOKLYN,NY,11217,7185459137
SIDEWALK CAFE,1244047,Unenclosed,75,"78 SECOND AVENUE SANDWICH SHOP,INC.",,78,2 AVENUE,,NEW YORK,NY,10003,2122535410
SIDEWALK CAFE,1244698,Enclosed,,NPK DONUT INC,,96,EAST  161 STREET,,BRONX,NY,10451,7189931380
SIDEWALK CAFE,1244977,Unenclosed,108,"FOCACCERIA, LTD",,87,MACDOUGAL STREET,,NEW YORK,NY,10012,2122538049
SIDEWALK CAFE,1245257,Enclosed,161,THE SMOKE JOINT LLC,THE SMOKE JOINT,87,SOUTH ELLIOTT PLACE,,BROOKLYN,NY,11217,7187971011
SIDEWALK CAFE,1245357,Enclosed,323,JRC GROUP INC,,1501,2 AVENUE,,NEW YORK,NY,10075,2123270582
SIDEWALK CAFE,1245534,Unenclosed,234,PECK SLIP RESTAURANT CORP.,,22,PECK SLIP,,NEW YORK,NY,10038,9175189792
SIDEWALK CAFE,1245908,Unenclosed,97,"CAFFE VETRO, INC.",,200,MOTT STREET,,NEW YORK,NY,10012,2129660904
SIDEWALK CAFE,1246104,Unenclosed,305,DLS CHICKEN CORP,,355,AMSTERDAM AVENUE,,NEW YORK,NY,10024,2127876631
SIDEWALK CAFE,1246497,Unenclosed,740,NEW YORK HOTEL TENANT CO. LLC,"THE RITZ-CARLTON NEW YORK, CENTRAL PARK",50,CENTRAL PARK SOUTH,,NEW YORK,NY,10019,2125216018
SIDEWALK CAFE,1247422,Unenclosed,280,TB 584 AMSTERDAM REST. CORP.,BODRUM,584,AMSTERDAM AVENUE,,NEW YORK,NY,10024,2127992806
SIDEWALK CAFE,1247606,Unenclosed,180,"HILL COUNTRY NY, LLC",,30,WEST   26 STREET,,NEW YORK,NY,10010,2122554544
SIDEWALK CAFE,1247610,Unenclosed,112,243 DEKALB REST. CORP,,243,DEKALB AVENUE,,BROOKLYN,NY,11205,6463358195
SIDEWALK CAFE,1247774,Unenclosed,124,"MCCONNER STREET HOLDING, LLC",MC 104,2726,BROADWAY,,NEW YORK,NY,10025,2122228553
SIDEWALK CAFE,1248146,Unenclosed,153,THIRD AVENUE RESTAURANT CORP.,VILLAGE POURHOUSE,64,3 AVENUE,,NEW YORK,NY,10003,2123751396
SIDEWALK CAFE,1248153,Enclosed,,"BAC BARS GROUP, LLC.",BAYARD'S ALEHOUSE,533,HUDSON STREET,A/K/A 116 CHARLES STREET,NEW YORK,NY,10014,6462455843
SIDEWALK CAFE,1248301,Unenclosed,249,PONENTE LLC,NIZZA,628,NINTH AVENUE,,NEW YORK,NY,10036,2123332323
SIDEWALK CAFE,1248596,Unenclosed,167,MANNA KITCHEN INC,,28,EAST   18 STREET,,NEW YORK,NY,10003,2122281044
SIDEWALK CAFE,1248607,Unenclosed,304,BIDOCHONS CORP,,263,SMITH STREET,,BROOKLYN,NY,11231,7187970707
SIDEWALK CAFE,1248609,Unenclosed,58,H & R CAFE INC,,36 B,AVENUE A,,NEW YORK,NY,10009,2125337183
SIDEWALK CAFE,1248648,Unenclosed,380,247 DELI LLC,DELICATESSEN,265,LAFAYETTE STREET,A/K/A 54 PRINCE STREET,NEW YORK,NY,10012,6464725230
SIDEWALK CAFE,1248652,Unenclosed,140,22 EAST 54 STREET RESTAURANT CORP,PAPILLON,22,EAST   54 STREET,,NEW YORK,NY,10022,2125131988
SIDEWALK CAFE,1249100,Unenclosed,364,P & A 665 RESTAURANT CORP.,GALAXY DINER,665,9 AVENUE,,NEW YORK,NY,10036,2125864885
SIDEWALK CAFE,1249101,Unenclosed,220,S. WALLACE INC,,2,WEST   35 STREET,,NEW YORK,NY,10001,2125949343
SIDEWALK CAFE,1249286,Unenclosed,176,27-39 EAST 30 REST. CORP,THE CROOKED KNIFE,27-29,EAST   30 STREET,,NEW YORK,NY,10016,6463597372
SIDEWALK CAFE,1249289,Unenclosed,177,599 TENTH AVENUE CORP.,,599,10 AVENUE,,NEW YORK,NY,10036,2122398020
SIDEWALK CAFE,1249445,Unenclosed,353,LASAGNA RESTAURANT INC.,,941,2 AVENUE,,NEW YORK,NY,10022,2123085353
SIDEWALK CAFE,1249523,Unenclosed,184,AKRAM RESTAURANT MANAGEMENT INC,,129,MULBERRY STREET,,NEW YORK,NY,10013,2123439065
SIDEWALK CAFE,1249567,Unenclosed,369,BANCONE LLC,PETRARCA,34,WHITE STREET,,NEW YORK,NY,10013,2126252800
SIDEWALK CAFE,1249725,Unenclosed,190,CILANTRO WEST LLC,,485,COLUMBUS AVENUE,,NEW YORK,NY,10024,2125131988
SIDEWALK CAFE,1249806,Unenclosed,240,ROSE RESTAURANT GROUP INC,,142-144,BEEKMAN STREET,,NEW YORK,NY,10038,2125662220
SIDEWALK CAFE,1249978,Unenclosed,203,"1460 SECOND AVENUE RESTAURANT GROUP, LLC",,1460,2 AVENUE,,NEW YORK,NY,10021,2127510700
SIDEWALK CAFE,1250013,Unenclosed,340,"PANZI ENTERPRISES, LLC",PANCA,92,7 AVENUE SOUTH,,NEW YORK,NY,10014,2124883900
SIDEWALK CAFE,1250451,Unenclosed,76,41 WEST LLC,SHELLY'S NEW YORK,41,WEST   57 STREET,,NEW YORK,NY,10019,2127596644
SIDEWALK CAFE,1250556,Unenclosed,562,FUSION SUSHI INC.,,346,1 AVENUE,,NEW YORK,NY,10009,2129837474
SIDEWALK CAFE,1250569,Unenclosed,175,MUNDO MUNDO CORP.,MUNDO TAPAS,31-18,BROADWAY,STORE # E,ASTORIA,NY,11106,7187772829
SIDEWALK CAFE,1250691,Unenclosed,204,OUT OF THE KITCHEN INC.,,420,HUDSON STREET,,NEW YORK,NY,10014,6314248480
SIDEWALK CAFE,1250759,Unenclosed,555,SOUP KITCHEN ASSOC. LTD.,BISTRO 33,19-33,DITMARS BOULEVARD,,ASTORIA,NY,11105,7187211933
SIDEWALK CAFE,1251386,Unenclosed,127,L & J BRAZIL RESTAURANT INC,VIA BRAZIL,34,WEST   46 STREET,,NEW YORK,NY,10036,2126439271
SIDEWALK CAFE,1251398,Unenclosed,134,MADOVA LLC.,,1668,3 AVENUE,,NEW YORK,NY,10128,2124261416
SIDEWALK CAFE,1251412,Unenclosed,426,SAMMY'S S.B. REST. CORP.,SAMMY'S ORIGNAL SHRIMP BOX,64,CITY ISLAND AVENUE,,BRONX,NY,10464,7188853200
SIDEWALK CAFE,1251443,Unenclosed,180,"HAIRY MONK,CORP.",JOHNNY FOXES,1546,2 AVENUE,,NEW YORK,NY,10028,9176767817
SIDEWALK CAFE,1251799,Unenclosed,152,4N CORP,BLIND PIG,233,EAST   14 STREET,,NEW YORK,NY,10003,6462070087
SIDEWALK CAFE,1251800,Unenclosed,198,PQ CHELSEA INC,,124,7 AVENUE,,NEW YORK,NY,10011,2123599000
SIDEWALK CAFE,1251803,Unenclosed,126,PQ FIRST INC,LE PAIN QUOTIDIEN,1270,1 AVENUE,,NEW YORK,NY,10065,2123599000
SIDEWALK CAFE,1251807,Enclosed,262,SHANGRILA DELI CORP,SHANGRILA DELI,228,FORT WASHINGTON AVENUE,,NEW YORK,NY,10032,2129276685
SIDEWALK CAFE,1252203,Unenclosed,71,SALSA SALON INC,,47,EAST   12 STREET,,NEW YORK,NY,10003,2122537594
SIDEWALK CAFE,1252281,Unenclosed,166,ALN RESTAURANT INC,GIOVANNA'S,128,MULBERRY STREET,180 HESTER STREET,NEW YORK,NY,10013,2123439065
SIDEWALK CAFE,1252679,Unenclosed,720,7TH AVENUE RESTAURANT GROUP LLC,,130-138,7 AVENUE SOUTH,,NEW YORK,NY,10014,2123522237
SIDEWALK CAFE,1252802,Unenclosed,137,108 BAGEL CORP,,108-01,ROCKAWAY BEACH BOULEVARD,,QUEENS,NY,11694,5166419126
SIDEWALK CAFE,1252836,Enclosed,306,RIZ BAGELS INC.,,57-20,WOODSIDE AVENUE,,WOODSIDE,NY,11377,7188033595
SIDEWALK CAFE,1253042,Unenclosed,770,"7TH & BARROW, LLC",SUSHI SAMBA  # 7,87,7 AVENUE SOUTH,,NEW YORK,NY,10014,2126917885
SIDEWALK CAFE,1253169,Unenclosed,138,"T BURGER, LLC",,67,LAFAYETTE AVENUE,,BROOKLYN,NY,11217,7187973790
SIDEWALK CAFE,1253201,Unenclosed,83,NICA RESTAURANT CORP,NICA TRATTORIA,354,EAST   84 STREET,,NEW YORK,NY,10028,2124725040
SIDEWALK CAFE,1253206,Unenclosed,120,772 NINTH RESTAURANT CORP.,,772,9 AVENUE,,NEW YORK,NY,10019,2125865005
SIDEWALK CAFE,1253520,Unenclosed,237,PALOMBO INC.,,2400,ARTHUR AVENUE,,BRONX,NY,10458,7183298800
SIDEWALK CAFE,1253585,Unenclosed,196,TABOON RESTAURANT CORP.,TABOON,773,10 AVENUE,,NEW YORK,NY,10019,2127130271
SIDEWALK CAFE,1253726,Enclosed,1,611 HUDSON STREET CORP.,,611,HUDSON STREET,,NEW YORK,NY,10014,2126458622
SIDEWALK CAFE,1254082,Unenclosed,416,KMG GROUP LLC,MOLLY PITCHERS'S ALE HOUSE,1641,2 AVENUE,,NEW YORK,NY,10028,2122493067
SIDEWALK CAFE,1254298,Unenclosed,222,MARKT ON LADIES MILE LLC,,676,6 AVENUE,,NEW YORK,NY,10010,9172246363
SIDEWALK CAFE,1254413,Unenclosed,115,SCENIC ROUTE 66 CAFE INC,,858,9 AVENUE,,NEW YORK,NY,10019,2129777600
SIDEWALK CAFE,1254785,Unenclosed,376,"BOWERY F & B, LLC",,335,BOWERY,A.K.A. 4 EAST 3RD STREET,NEW YORK,NY,10003,2125131988
SIDEWALK CAFE,1254942,Unenclosed,369,3801 BROADWAY RESTAURANT CORP.,,38-01,BROADWAY,,L.I.C,NY,11103,7187771707
SIDEWALK CAFE,1255104,Unenclosed,138,SAFRAN INC.,,88,7 AVENUE,,NEW YORK,NY,10011,2129291778
SIDEWALK CAFE,1255149,Unenclosed,126,DULJO CORP.,BROTHERS PIZZA,30-50,14 STREET,,QUEENS,NY,11102,7187771111
SIDEWALK CAFE,1255573,Unenclosed,364,MDV BROADWAY LLC,TIME CAFE,44-18,BROADWAY,,ASTORIA,NY,11103,7186060500
SIDEWALK CAFE,1256251,Enclosed,390,VYNL ON SECOND LLC,,1491,2 AVENUE,,NEW YORK,NY,10075,2127654842
SIDEWALK CAFE,1256268,Unenclosed,207,"VYNL ON SECOND, LLC",,1491,2 AVENUE,,NEW YORK,NY,10075,2127654842
SIDEWALK CAFE,1256574,Unenclosed,418,SLD DELI GRILL INC,GRACIES'S CAFE,1530,YORK AVENUE,,NEW YORK,NY,10028,2125172667
SIDEWALK CAFE,1257055,Unenclosed,103,384 3RD AVE REST LLC,ARCTICA,384,3 AVENUE,,NEW YORK,NY,10016,9146326036
SIDEWALK CAFE,1257073,Unenclosed,270,SCHATZI CORP.,WALLSE RESTAURANT,342-344,WEST   11 STREET,,NEW YORK,NY,10014,2123522300
SIDEWALK CAFE,1257247,Unenclosed,95,"177 NAP, INC",FAMOUS BEN'S PIZZA OF SOHO,177,SPRING STREET,,NEW YORK,NY,10012,2129664494
SIDEWALK CAFE,1257387,Enclosed,511,"GEORGE'S SCC, INC",GEORGES RESTAURANT,3000,BUHRE AVENUE,,BRONX,NY,10461,7188635256
SIDEWALK CAFE,1257707,Unenclosed,110,1650 BROADWAY ASSOCIATES INC.,ELLEN'S STARBUST DINER,1650,BROADWAY,,NEW YORK,NY,10019,2125820161
SIDEWALK CAFE,1258092,Unenclosed,154,THE DOWNTOWN LLC,HOTEL ON RIVINGTON,107,RIVINGTON STREET,,NEW YORK,NY,10002,2124752600
SIDEWALK CAFE,1258099,Unenclosed,205,JAMES-ZAC CORP.,BRUNO THE KING OF RAVIOLI,282-284,FIRST AVENUE,,NEW YORK,NY,10009,2016460505
SIDEWALK CAFE,1258388,Unenclosed,81,TACO TACO INC,,1726,2 AVENUE,,NEW YORK,NY,10128,2122898226
SIDEWALK CAFE,1258524,Enclosed,364,88 2ND AVE FOOD CORP.,,88,2 AVENUE,,NEW YORK,NY,10003,2124208050
SIDEWALK CAFE,1259013,Unenclosed,410,"381 PARK AVENUE SOUTH, LLC",PRIME STEAKHOUSE,381,PARK AVENUE SOUTH,,NEW YORK,NY,10016,2128242600
SIDEWALK CAFE,1259219,Unenclosed,177,174 BEDFORD AVENUE BAR LLC,CHARLESTON,174,BEDFORD AVENUE,,BROOKLYN,NY,11211,7185999199
SIDEWALK CAFE,1259291,Unenclosed,158,LEX 90 CORP,CORRADO BAKERY,1361,LEXINGTON AVENUE,,NEW YORK,NY,10128,9146326036
SIDEWALK CAFE,1259520,Unenclosed,171,"JODAN, INC",CAFE BOULUD,20,EAST   76 STREET,,NEW YORK,NY,10021,2127722600
SIDEWALK CAFE,1260284,Unenclosed,190,276 COLUMBUS INC.,ARTE AROUND THE CORNER,270-276,COLUMBUS AVENUE,,NEW YORK,NY,10023,2128752195
SIDEWALK CAFE,1260889,Unenclosed,410,10 DOWNING LLC,10 DOWNING,10,DOWNING STREET,AKA 263 6TH AVE,NEW YORK,NY,10014,9175234972
SIDEWALK CAFE,1260890,Unenclosed,311,GOAT FIFTY LLC,,36,PECK SLIP,,NEW YORK,NY,10038,2123469090
SIDEWALK CAFE,1260966,Unenclosed,53,CANTALOUPE LLC,LOVELY DAY,196,ELIZABETH STREET,,NEW YORK,NY,10012,2129253310
SIDEWALK CAFE,1261303,Unenclosed,420,LITTLE MOROCCO RESTAURANT CORP.,,24-39,STEINWAY STREET,,QUEENS,NY,11103,7182048118
SIDEWALK CAFE,1261306,Unenclosed,172,IVY'S BISTRO LLC.,,385,GREENWICH STREET,,NEW YORK,NY,10013,2123431139
SIDEWALK CAFE,1261653,Unenclosed,40,"LMR N.H., INC.",BISTRO 60,37,EAST   60 STREET,,NEW YORK,NY,10022,2122301350
SIDEWALK CAFE,1261882,Unenclosed,274,PROVENCIO LTD,,341,7 AVENUE,,BROOKLYN,NY,11215,9178044534
SIDEWALK CAFE,1262190,Unenclosed,172,"COSI, INC",,2186,BROADWAY,,NEW YORK,NY,10024,2125955616
SIDEWALK CAFE,1262376,Unenclosed,219,DEAN'S REST. CORP.,DEAN'S,349,GREENWICH STREET,,NEW YORK,NY,10013,2126885916
SIDEWALK CAFE,1262390,Unenclosed,184,DHARADHARA LLC,,1426,3 AVENUE,,NEW YORK,NY,10028,6464166196
SIDEWALK CAFE,1263648,Unenclosed,369,ARTOPOLIS CAFE LTD,,1090,AMSTERDAM AVENUE,,NEW YORK,NY,10025,2126663744
SIDEWALK CAFE,1265442,Unenclosed,177,J OF K CORP,,427,AMSTERDAM AVENUE,,NEW YORK,NY,10024,2125800007
SIDEWALK CAFE,1268609,Enclosed,814,TOSCA COAL BURNING OVEN INC,,4038,EAST TREMONT AVENUE,,BRONX,NY,10465,7184020872
SIDEWALK CAFE,1270176,Enclosed,481,HI-LIFE SECOND AVE. LLC,HI-LIFE RESTAURANT & LOUNGE,1503,2 AVENUE,,NEW YORK,NY,10075,9175629424
SIDEWALK CAFE,1271233,Enclosed,118,"NO GRANDE,INC.",,86,SOUTH PORTLAND AVENUE,,BROOKLYN,NY,11217,7186430000
SIDEWALK CAFE,1271529,Unenclosed,500,"MONA LISA CAFE, INC",,1476,86 STREET,,BROOKLYN,NY,11228,7188379053
SIDEWALK CAFE,1271565,Enclosed,365,MAGNOLIA COLUMBUS AVENUE LLC.,,200,COLUMBUS AVENUE,,NEW YORK,NY,10023,2127571177
SIDEWALK CAFE,1272598,Unenclosed,82,TRIBECA FOOD NY LLC,,329,GREENWICH STREET,,NEW YORK,NY,10013,9175843976
SIDEWALK CAFE,1272901,Enclosed,290,EL SAYED 1 CORP.,,93,AVENUE B,AKA 601 EAST 6 STREET,NEW YORK,NY,10009,9172927822
SIDEWALK CAFE,1273996,Unenclosed,160,"MERMAID 88, LLC",THE MERMAID INN,568,AMSTERDAM AVENUE,,NEW YORK,NY,10024,2127997400
SIDEWALK CAFE,1274348,Unenclosed,138,"BZ THAI RESTAURANT, INC.",LAND,1565,2 AVENUE,,NEW YORK,NY,10028,2124391847
SIDEWALK CAFE,1274576,Unenclosed,96,PAM REAL THAI II INC,,402,WEST   47 STREET,,NEW YORK,NY,10036,2123154441
SIDEWALK CAFE,1274769,Unenclosed,328,PQ 550 HUDSON INC,LE PAIN QUOTIDIEN,550,HUDSON STREET,,NEW YORK,NY,10014,2123599000
SIDEWALK CAFE,1274929,Unenclosed,133,LA MELA RISTORANTE ITALIANO INC,LA MELA RISTORANTE,167-171,MULBERRY STREET,,NEW YORK,NY,10013,2124319493
SIDEWALK CAFE,1274931,Unenclosed,245,SUSHI A GOGO INC,SUSHI A GOGO RESTAURANT,1900,BROADWAY,,NEW YORK,NY,10023,6462756820
SIDEWALK CAFE,1275009,Enclosed,"1,044",40-01 NORTHERN BOULEVARD CORP,,40-01,NORTHERN BOULEVARD,,QUEENS,NY,11101,9178418887
SIDEWALK CAFE,1275484,Unenclosed,232,THAI MARKET INC.,,960,AMSTERDAM AVENUE,,NEW YORK,NY,10025,2122804575
SIDEWALK CAFE,1275517,Enclosed,,AMBER JAPANESE REST. INC.,,221-223,COLUMBUS AVENUE,,NEW YORK,NY,10023,2127998100
SIDEWALK CAFE,1276520,Unenclosed,102,GENINO INC,VICO,1302,MADISON AVENUE,,NEW YORK,NY,10128,2128672222
SIDEWALK CAFE,1276639,Unenclosed,144,TSM RESTAURANT LLC,,524,COURT STREET,,BROOKLYN,NY,11231,7187815445
SIDEWALK CAFE,1276674,Unenclosed,770,701 W. 135TH CAFE INC.,,701,WEST  135 STREET,,NEW YORK,NY,10031,2122882937
SIDEWALK CAFE,1276890,Unenclosed,162,STIVALE 77 CORP,BAR ITALIA,1477,SECOND AVENUE,,NEW YORK,NY,10075,2122495300
SIDEWALK CAFE,1276893,Unenclosed,146,166 PARK INC.,,166,DEKALB AVENUE,,BROOKLYN,NY,11217,7188582700
SIDEWALK CAFE,1276994,Unenclosed,273,TENZAN II NEW YORK CORP.,,1714,SECOND AVENUE,,NEW YORK,NY,10128,2123693600
SIDEWALK CAFE,1277060,Unenclosed,144,1629 2ND CAFE INC.,,1629,2 AVENUE,,NEW YORK,NY,10028,2126282364
SIDEWALK CAFE,1277064,Unenclosed,40,TOTOF INC.,,168,AVENUE B,,NEW YORK,NY,10009,2128885489
SIDEWALK CAFE,1277071,Unenclosed,60,LARRY KEVIN K CORP,,751,9 AVENUE,,NEW YORK,NY,10019,2127638924
SIDEWALK CAFE,1277182,Unenclosed,158,SIGGY'S GOOD FOOD L.L.C.,,76,HENRY STREET,,BROOKLYN,NY,11201,7182373199
SIDEWALK CAFE,1277185,Unenclosed,233,163 5TH AVE REST CORP,,2,LINCOLN PLACE,,BROOKLYN,NY,11217,7186362100
SIDEWALK CAFE,1277267,Unenclosed,76,"ABBEY RESTAURANT,  INC.",RESTO,111,EAST   29 STREET,,NEW YORK,NY,10016,2126855585
SIDEWALK CAFE,1277362,Unenclosed,255,SENGUPTA FOOD SERVICES LLC,,62,PRINCE STREET,,NEW YORK,NY,10012,2122192129
SIDEWALK CAFE,1277408,Unenclosed,185,ITALIAN WINE COMPANY LLC,,38,8 AVENUE,,NEW YORK,NY,10014,9176647323
SIDEWALK CAFE,1277413,Unenclosed,303,"GUSTO GRILLED ORGANICS, INC",,519-523,6 AVENUE,,NEW YORK,NY,10011,2122020861
SIDEWALK CAFE,1277414,Unenclosed,113,SHANNON CAFE LLC,,951,2 AVENUE,,NEW YORK,NY,10022,9175432948
SIDEWALK CAFE,1277441,Unenclosed,423,ROMANOS FAMOUS PIZZA CORP.,,32-21,BROADWAY,,ASTORIA,NY,11106,9172040210
SIDEWALK CAFE,1277455,Unenclosed,173,BURKINABE ENTERTAINMENT LLC,,2271-2273,7 AVENUE,AKA ADAM CLAYTON POWELL JR BLVD,NEW YORK,NY,10030,2126907807
SIDEWALK CAFE,1277457,Unenclosed,326,"WOW BRIGDE CAFE, LLC",,168,BORINQUEN PLACE,,BROOKLYN,NY,11211,7183441147
SIDEWALK CAFE,1277458,Enclosed,,UNGS FOOD SERVICES INC.,,33-19,BROADWAY,,ASTORIA,NY,11106,7186260593
SIDEWALK CAFE,1277636,Unenclosed,140,THE EMERA GROUP INCORPORATED,,610,10 AVENUE,,NEW YORK,NY,10036,2129699100
SIDEWALK CAFE,1277645,Unenclosed,233,THINK BLEECKER LLC,,1,BLEECKER STREET,,NEW YORK,NY,10012,9176922571
SIDEWALK CAFE,1277648,Unenclosed,134,RESTO-LEON INC.,,351,EAST   12 STREET,,NEW YORK,NY,10003,2124960163
SIDEWALK CAFE,1277655,Unenclosed,320,AVENTURA RESTAURANT LLC,VAMOS,348,1 AVENUE,,NEW YORK,NY,10010,2127273565
SIDEWALK CAFE,1277773,Unenclosed,269,MEM REST CORP.,,4029,EAST TREMONT AVENUE,,BRONX,NY,10465,9175603156
SIDEWALK CAFE,1277774,Unenclosed,219,LITTLE SIAM CORP,,658,9 AVENUE,,NEW YORK,NY,10036,2129560639
SIDEWALK CAFE,1277777,Unenclosed,324,IANO CORP,,718,AMSTERDAM AVENUE,,NEW YORK,NY,10025,9172253271
SIDEWALK CAFE,1277778,Unenclosed,171,PQ UPPER WEST INC,,2463,BROADWAY,,NEW YORK,NY,10025,2123599000
SIDEWALK CAFE,1277779,Unenclosed,285,GRAMERCY THAI. INC,,311,2 AVENUE,,NEW YORK,NY,10003,2125299819
SIDEWALK CAFE,1277785,Unenclosed,200,IL MELOGRANO LLC,,501,WEST   51 STREET,,NEW YORK,NY,10019,2127579290
SIDEWALK CAFE,1277859,Unenclosed,163,C & O COFFEE SHOP INC.,,28,8 AVENUE,,NEW YORK,NY,10014,2127419266
SIDEWALK CAFE,1277876,Unenclosed,455,"LA SCALA RESTAURANT, LLC",,630,9 AVENUE,,NEW YORK,NY,10036,21233323
SIDEWALK CAFE,1277928,Unenclosed,129,SO-TAUN ENTERPRISES LLC,WAVE THAI,21-37,31 STREET,,QUEENS,NY,11105,7187776789
SIDEWALK CAFE,1277937,Unenclosed,115,"SKIBEREEN BAR, INC",THE KINSALE TAVERN,1672,3 AVENUE,,NEW YORK,NY,10128,9177579484
SIDEWALK CAFE,1277938,Unenclosed,137,RAM EATS LLC,BLOCKHEADS BURRITOS,951,AMSTERDAM AVENUE,,NEW YORK,NY,10025,2126628226
SIDEWALK CAFE,1277942,Unenclosed,212,MOSSO CORP,,300,SPRING STREET,,NEW YORK,NY,10013,3472560553
SIDEWALK CAFE,1277957,Unenclosed,361,"259 FIFTH AVENUE, LLC",A.O.C. BISTRO,259,5 AVENUE,,BROOKLYN,NY,11215,2126759472
SIDEWALK CAFE,1278036,Unenclosed,405,84 E. 4TH STREET RESTAURANT INC.,BELCOURT,84,EAST    4 STREET,,NEW YORK,NY,10003,9179571085
SIDEWALK CAFE,1278108,Unenclosed,62,"JL MEGRE CO., INC.",,120,MONTAGUE STREET,,BROOKLYN,NY,11201,5164822999
SIDEWALK CAFE,1278271,Unenclosed,136,211 AVE A RESTAURANT INC.,SHOOLBRED'S,197,2 AVENUE,,NEW YORK,NY,10003,9179693440
SIDEWALK CAFE,1278297,Unenclosed,125,"PARK SLOPE MP COMPANY, INC",,160,7 AVENUE,,BROOKLYN,NY,11215,7187889500
SIDEWALK CAFE,1278350,Unenclosed,400,KATOUNA INC,,2479,BROADWAY,,NEW YORK,NY,10025,2127216130
SIDEWALK CAFE,1278581,Unenclosed,309,CUCINA ROMANA INC,,1429,5 AVENUE,,NEW YORK,NY,10035,9172573808
SIDEWALK CAFE,1278586,Unenclosed,164,PICK A BAGEL ON SECOND INC,,1473,2 AVENUE,,NEW YORK,NY,10075,9176744800
SIDEWALK CAFE,1278587,Enclosed,501,C & V 77 ENTERPRISES LLC,,1475-77,1 AVENUE,,NEW YORK,NY,10075,2129884163
SIDEWALK CAFE,1278803,Unenclosed,206,BAR STUZZICHINI,,928,BROADWAY,,NEW YORK,NY,10010,2127805100
SIDEWALK CAFE,1279364,Unenclosed,101,SETTEBELLO LLC,,647,EAST   11 STREET,,NEW YORK,NY,10009,2127773355
SIDEWALK CAFE,1279546,Unenclosed,96,"FGNY 496 LAGUARDIA, LLC",,496,LAGUARDIA PLACE,,NEW YORK,NY,10012,2125055861
SIDEWALK CAFE,1279573,Unenclosed,148,"HALF PINT ON THOMPSON, LLC",,234,THOMPSON STREET,,NEW YORK,NY,10012,2122601088
SIDEWALK CAFE,1279584,Unenclosed,145,PRISHTINA REST. CORP,,2325,ARTHUR AVENUE,,BRONX,NY,10458,7182204254
SIDEWALK CAFE,1279912,Unenclosed,128,WATER MOON AT NYC INC.,,467,COLUMBUS AVENUE,,NEW YORK,NY,10024,9173763416
SIDEWALK CAFE,1280168,Unenclosed,212,2888 BROADWAY LLC,,2888,BROADWAY,,NEW YORK,NY,10025,2123623004
SIDEWALK CAFE,1280169,Unenclosed,264,S.A.V. ASSOCIATES INC.,,2637,BROADWAY,,NEW YORK,NY,10025,2126651141
SIDEWALK CAFE,1280217,Unenclosed,112,CALOUNE CORP.,TOURNESOL RESTAURANT,50-12,VERNON BOULEVARD,,QUEENS,NY,11101,7184724355
SIDEWALK CAFE,1280485,Unenclosed,453,G.V.S BAKERY INC,,36-21,DITMARS BOULEVARD,,QUEENS,NY,11105,7187266969
SIDEWALK CAFE,1280572,Enclosed,461,74 SEVENTH LLC,,37,BARROW STREET,,NEW YORK,NY,10014,2129806363
SIDEWALK CAFE,1280649,Unenclosed,87,PEARLSTONE BURGER CORPORATION,,77,PEARL STREET,,NEW YORK,NY,10004,2122699100
SIDEWALK CAFE,1280660,Unenclosed,131,"TWO BIKES, LLC",LITTLE GIANT FOOD & DRINK,85,ORCHARD STREET,,NEW YORK,NY,10002,2122265047
SIDEWALK CAFE,1280757,Enclosed,312,MTLC CORPORATION,,47-57,41 STREET,,SUNNYSIDE,NY,11104,7187844651
SIDEWALK CAFE,1281025,Unenclosed,311,RESTAURANT 101 INC.,,101B,DYCKMAN STREET,,NEW YORK,NY,10040,2125672288
SIDEWALK CAFE,1281431,Unenclosed,185,BEN TAS CORP,OTHELLO DELI,26-19,24 AVENUE,,QUEENS,NY,11102,7189561337
SIDEWALK CAFE,1281748,Unenclosed,400,316 BOWERY LLC,,316,BOWERY,,NEW YORK,NY,10012,2123437017
SIDEWALK CAFE,1281789,Unenclosed,142,SAMALITAS OF CALIFORNIA II LLC,,1681,1 AVENUE,,NEW YORK,NY,10128,2127375070
SIDEWALK CAFE,1281798,Unenclosed,196,"BELSTAR ICE CREAM CO, LLC",,34-20,BROADWAY,,ASTORIA,NY,11106,5163010943
SIDEWALK CAFE,1281981,Unenclosed,54,RAYNICK CORP,,205,ALLEN STREET,,NEW YORK,NY,10002,2122898226
SIDEWALK CAFE,1282036,Unenclosed,201,14TH STREET BELLA PIZZA CORP,,232,FIRST AVENUE,,NEW YORK,NY,10009,2122283869
SIDEWALK CAFE,1282220,Enclosed,370,GEISHA NYC LLC,,111,EAST   18 STREET,,NEW YORK,NY,10003,2125574445
SIDEWALK CAFE,1282359,Unenclosed,287,"TIRAMISU RESTAURANT, LLC",,1410,THIRD AVENUE,,NEW YORK,NY,10028,2129889780
SIDEWALK CAFE,1282383,Unenclosed,135,149 BROADWAY RESTAURANT LLC,,149,BROADWAY,,BROOKLYN,NY,11211,7183846343
SIDEWALK CAFE,1282391,Unenclosed,288,"DUMONT BURGER, LLC",,314,BEDFORD AVENUE,,BROOKLYN,NY,11211,7183846128
SIDEWALK CAFE,1282473,Unenclosed,520,DINOSAUR RESTAURANTS LLC,,2293,12 AVENUE,AKA 646 WEST 131 STREET,NEW YORK,NY,10027,2126941777
SIDEWALK CAFE,1282506,Enclosed,431,SHAKE SHACK 366 COLUMBUS LLC,,366,COLUMBUS AVENUE,,NEW YORK,NY,10024,2122271771
SIDEWALK CAFE,1282650,Unenclosed,149,MEATH TRAILS INC.,,61,SECOND AVENUE,,NEW YORK,NY,10003,2123880662
SIDEWALK CAFE,1282674,Unenclosed,30,JZ FOOD & WINE LLC,,47,8 AVENUE,,NEW YORK,NY,10014,2122553900
SIDEWALK CAFE,1282774,Unenclosed,146,201 REST. 95TH STREET CORP.,,201,W 95TH ST,,NEW YORK,NY,10025,6462496822
SIDEWALK CAFE,1282833,Unenclosed,417,FIASCO GROUP LLC,,323,3 AVENUE,,NEW YORK,NY,10010,2126833035
SIDEWALK CAFE,1282959,Unenclosed,143,NANOOSH BROADWAY L.L.C.,,2012,BROADWAY,,NEW YORK,NY,10023,2123627922
SIDEWALK CAFE,1282969,Unenclosed,290,"64 WEST RESTAURANT, LLC",BAR BOULUD,1900,BROADWAY,,NEW YORK,NY,10023,2125951313
SIDEWALK CAFE,1283230,Unenclosed,360,600 WEST 169TH REST. INC.,,4015,BROADWAY,,NEW YORK,NY,10032,2129281234
SIDEWALK CAFE,1283503,Unenclosed,244,CGM OTA LLC,,2170,BROADWAY,,NEW YORK,NY,10024,9175351951
SIDEWALK CAFE,1283520,Unenclosed,291,LA PERLE NOIRE CAFE AND BAKERY LLC,,420,LENOX AVENUE,,NEW YORK,NY,10037,2122341777
SIDEWALK CAFE,1283546,Unenclosed,,"DA ECIB USA, INC.",BICE RISTORANTE,7,EAST   54 STREET,,NEW YORK,NY,10022,2126881999
SIDEWALK CAFE,1283551,Unenclosed,91,"KEBAB GARDEN, INC.",,128,FIRST AVENUE,,NEW YORK,NY,10009,2122284805
SIDEWALK CAFE,1283635,Unenclosed,120,"JPS VENTURES, INC",ST. JAMES GATE,441,AMSTERDAM AVENUE,,NEW YORK,NY,10024,2123626202
SIDEWALK CAFE,1283643,Enclosed,224,JPS VENTURES INC.,ST. JAMES CAFE,441,AMSTERDAM AVENUE,,NEW YORK,NY,10024,212
SIDEWALK CAFE,1283821,Unenclosed,63,237 BEDFORD AVENUE RESTAURANT CORP.,,237,BEDFORD AVENUE,,BROOKLYN,NY,11211,7183025353
SIDEWALK CAFE,1283822,Unenclosed,235,THOMPSON REST. INC,,358,WEST   44 STREET,,NEW YORK,NY,10036,2128070916
SIDEWALK CAFE,1283835,Unenclosed,224,LIC SEAFOOD INC.,OFF THE HOOK,32-10,36 AVENUE,,QUEENS,NY,11106,7187866015
SIDEWALK CAFE,1284013,Unenclosed,412,KALAMAKI TAVERNA INC,,28-13,23 AVENUE,,ASTORIA,NY,11105,7187289056
SIDEWALK CAFE,1284057,Unenclosed,204,"MICKEY'S PLACE ON 43RD ST., LTD",BAR 43,43-06,43 STREET,,SUNNYSIDE,NY,11104,7183613090
SIDEWALK CAFE,1284842,Unenclosed,183,IL GALLO CEDRONE LTD,,116,HAVEMEYER STREET,,BROOKLYN,NY,11211,6468724085
SIDEWALK CAFE,1285032,Unenclosed,146,265 PASTRY LLC,,265,LAFAYETTE STREET,,NEW YORK,NY,10012,6465102143
SIDEWALK CAFE,1285644,Unenclosed,251,LM RESTAURANT GROUP LLC,,120,EAST   15 STREET,,NEW YORK,NY,10003,9176706632
SIDEWALK CAFE,1285652,Unenclosed,338,ARDIAN CORP,,33-07,DITMARS BOULEVARD,,QUEENS,NY,11105,7185458666
SIDEWALK CAFE,1285670,Enclosed,497,NEW KO-SUSHI JAPANESE RESTAURANT INC,,1329,2 AVENUE,,NEW YORK,NY,10021,2124391678
SIDEWALK CAFE,1285810,Unenclosed,401,LOKAL RESTAURANT CORP,,905,LORIMER STREET,,BROOKLYN,NY,11222,7185997007
SIDEWALK CAFE,1286005,Unenclosed,158,CARAPINA LLC,,233,BLEECKER STREET,,NEW YORK,NY,10014,9175828684
SIDEWALK CAFE,1286845,Unenclosed,208,SL & H BAGEL INC.,,1228,2 AVENUE,,NEW YORK,NY,10065,2129440956
SIDEWALK CAFE,1287002,Unenclosed,222,RF RESTAURANT & FOOD CORP,CAFE ESPANOL,78,CARMINE STREET,,NEW YORK,NY,10014,2126451393
SIDEWALK CAFE,1287020,Unenclosed,347,394 CITY ISLAND AVE INC,,394,CITY ISLAND AVENUE,,BRONX,NY,10464,7188859885
SIDEWALK CAFE,1287121,Unenclosed,262,BROOKLYN BAR NYC INC,EAST VILLAGE TAVERN,158,AVENUE C,,NEW YORK,NY,10009,3478376120
SIDEWALK CAFE,1287124,Enclosed,300,STEVEN JAY LLC,PARLOR STEAKHOUSE,1600,THIRD AVENUE,,NEW YORK,NY,10128,7183530002
SIDEWALK CAFE,1287126,Unenclosed,176,BB AT 55TH & 5TH LLC,,60,WEST   55 STREET,,NEW YORK,NY,10019,6469437340
SIDEWALK CAFE,1287689,Unenclosed,141,3952 BWAY CORP.,,3952,BROADWAY,,NEW YORK,NY,10032,2128575412
SIDEWALK CAFE,1287835,Unenclosed,143,NARGIS CORP,,2818,CONEY ISLAND AVENUE,,BROOKLYN,NY,11235,7188727888
SIDEWALK CAFE,1288036,Unenclosed,81,609 EDIBLES LLC,,2410,ARTHUR AVENUE,,BRONX,NY,10458,7187339879
SIDEWALK CAFE,1288706,Unenclosed,199,"GRAND SICHUAN 7 AVE., INC",,15,7 AVENUE SOUTH,,NEW YORK,NY,10014,2123616091
SIDEWALK CAFE,1289076,Unenclosed,336,EU RESTAURANT LLC,,235,EAST    4 STREET,,NEW YORK,NY,10009,9178800821
SIDEWALK CAFE,1289202,Unenclosed,390,VERO MIDTOWN LLC,,1004,2 AVENUE,,NEW YORK,NY,10022,2125336700
SIDEWALK CAFE,1289238,Unenclosed,91,ALFREDO'S COAL OVEN PIZZERIA CORP,,117,W 57TH ST,,NEW YORK,NY,10019,2126882762
SIDEWALK CAFE,1289245,Unenclosed,110,OPA-EUROPA INC,,749,9 AVENUE,,NEW YORK,NY,10019,9172457992
SIDEWALK CAFE,1289251,Unenclosed,147,M & M 28TH ST RESTAURANT LLC,,382,8 AVENUE,,NEW YORK,NY,10001,9177055119
SIDEWALK CAFE,1289261,Unenclosed,209,PASSIONE RISTORANTE LLC,,1590,LEXINGTON AVENUE,,NEW YORK,NY,10029,2126432616
SIDEWALK CAFE,1289268,Unenclosed,106,PROGETTO INC.,,352,WEST   44 STREET,,NEW YORK,NY,10036,2123994141
SIDEWALK CAFE,1289619,Unenclosed,545,FUSHA JAPANESE REST. INC.,,311,AMSTERDAM AVENUE,,NEW YORK,NY,10023,2128779300
SIDEWALK CAFE,1290047,Unenclosed,695,WOODHAVEN BLVD REST INC,,63-98,WOODHAVEN BOULEVARD,,REGO PARK,NY,11374,9177716890
SIDEWALK CAFE,1290090,Unenclosed,211,FOOTPRINT CAFE INC.,,5814,CLARENDON ROAD,,BROOKLYN,NY,11203,7184513181
SIDEWALK CAFE,1290477,Unenclosed,150,"4 RUNNERS, INC",,310,WEST   14 STREET,,NEW YORK,NY,10014,2124638626
SIDEWALK CAFE,1290541,Unenclosed,330,"LONG ISLAND CITY APPLE, LLC",,38-01,35 AVENUE,,QUEENS,NY,11101,9147772331
SIDEWALK CAFE,1292173,Unenclosed,297,WILLIAMSBURGER LLC,,342,WYTHE AVENUE,,BROOKLYN,NY,11211,6463186359
SIDEWALK CAFE,1292343,Unenclosed,175,ALFIE COMPANY LLC,,1712,1 AVENUE,,NEW YORK,NY,10128,2129879260
SIDEWALK CAFE,1292658,Enclosed,189,PRY RESTAURANT CORP,,1479,YORK AVENUE,,NEW YORK,NY,10075,9179710027
SIDEWALK CAFE,1292862,Unenclosed,652,NEW YORK STEAK HOUSE LLC,,2007,EMMONS AVENUE,,BROOKLYN,NY,11235,7184408080
SIDEWALK CAFE,1293466,Unenclosed,230,"LEXINGTON AVENUE BBQ, LLC",,181,LEXINGTON AVENUE,,NEW YORK,NY,10016,2128606466
SIDEWALK CAFE,1295792,Unenclosed,154,"CHERRY CAFE & RESTAURANT, INC.",,34-02,BROADWAY,,ASTORIA,NY,11106,7186061452
SIDEWALK CAFE,1295832,Unenclosed,467,TJ 104 RESTAURANT CORP.,,1737,YORK AVENUE,,NEW YORK,NY,10128,2128609191
SIDEWALK CAFE,1297821,Enclosed,252,3RD AVE 26 REST. CORP.,,359,3 AVENUE,,NEW YORK,NY,10016,6465260252
SIDEWALK CAFE,1298434,Unenclosed,60,SUSHI VIDA INC.,,237,DYCKMAN STREET,,NEW YORK,NY,10034,2123041217
SIDEWALK CAFE,1298516,Unenclosed,190,THE SHOREHAM LLC,,39,WEST   55 STREET,,NEW YORK,NY,10019,2129578300
SIDEWALK CAFE,1299204,Unenclosed,69,CAVATAPPO WINE BAR LLC,,347,3 AVENUE,,NEW YORK,NY,10010,9174970071
SIDEWALK CAFE,1299328,Unenclosed,363,179 THIRD AVENUE REST. INC,,179,THIRD AVENUE,200 EAST 17 STREET,NEW YORK,NY,10003,2124776066
SIDEWALK CAFE,1299566,Unenclosed,262,POINT 31 INC.,,38-01,31 AVENUE,,QUEENS,NY,11103,9176130783
SIDEWALK CAFE,1301309,Enclosed,735,RED BAMBOO ON 7TH AVENUE INC,,47-49,7 AVENUE SOUTH,,NEW YORK,NY,10014,2122552848
SIDEWALK CAFE,1301635,Unenclosed,61,BONARUE BLEU INDUSTRIES INC,,185,SULLIVAN STREET,,NEW YORK,NY,10012,2126776830
SIDEWALK CAFE,1301753,Unenclosed,725,SCUDERIA GALLO LLC,,10,DOWNING STREET,257-263  6 AVENUE,NEW YORK,NY,10014,9178154244
SIDEWALK CAFE,1301779,Enclosed,,"FRESCO BAGEL, LLC",,1239,1 AVENUE,,NEW YORK,NY,10065,2125359030
SIDEWALK CAFE,1301969,Enclosed,,"JAVIER AND DAVID RESTAURANT, CORP.",,1618,ST NICHOLAS AVENUE,,NEW YORK,NY,10040,2127811880
SIDEWALK CAFE,1304190,Unenclosed,261,CAFE LA NUEVA BAKERY INC,,85-02,37 AVENUE,,JACKSON HEIGHTS,NY,11372,7185053700
SIDEWALK CAFE,1305277,Unenclosed,77,GROOVE ENTERPRISES INC,,125,MACDOUGAL STREET,,NEW YORK,NY,10012,9177319367
SIDEWALK CAFE,1305461,Unenclosed,205,"MMR VENTURES, LLC",,42,CENTRAL PARK SOUTH,,NEW YORK,NY,10019,2126887777
SIDEWALK CAFE,1305734,Enclosed,412,POLLOS MARIO WOODHAVEN CORP.,,63-20,WOODHAVEN BOULEVARD,,REGO PARK,NY,11374,7188565883
SIDEWALK CAFE,1305870,Unenclosed,390,FIFTH & 5TH LLC,,330,FIFTH STREET,,BROOKLYN,NY,11215,7188329777
SIDEWALK CAFE,1306814,Unenclosed,308,"STEVEN JAY, LLC",,1600,3 AVENUE,,NEW YORK,NY,10128,914476588
SIDEWALK CAFE,1307585,Unenclosed,168,GAT 35 CORP.,,35,WEST   13 STREET,,NEW YORK,NY,10011,2123671979
SIDEWALK CAFE,1307588,Unenclosed,168,480 REST AMSTERDAM INC.,,480,AMSTERDAM AVENUE,,NEW YORK,NY,10024,2125794299
SIDEWALK CAFE,1307658,Unenclosed,206,802 RESTAURANT CORP,,802,9 AVENUE,,NEW YORK,NY,10019,9144692932
SIDEWALK CAFE,1307957,Unenclosed,170,BEST BOAT SEAFOOD RESTAURANT INC,,722,AMSTERDAM AVENUE,,NEW YORK,NY,10025,9175958472
SIDEWALK CAFE,1308014,Unenclosed,246,"TAPAS FOOD AND WINE, INC.",,2020,BROADWAY,,NEW YORK,NY,10023,2125952805
SIDEWALK CAFE,1308287,Unenclosed,99,247 CAFE INC.,,247,DEKALB AVENUE,,BROOKLYN,NY,11205,6314248480
SIDEWALK CAFE,1308502,Unenclosed,290,NEW ORGANICO INC.,,89,7 AVENUE SOUTH,,NEW YORK,NY,10014,6462216545
SIDEWALK CAFE,1308512,Unenclosed,233,ASB PIZZERIA INC,,1658-1660,3 AVENUE,,NEW YORK,NY,10128,2124106787
SIDEWALK CAFE,1308519,Unenclosed,190,"STINKY VINE, LLC",,282,SMITH STREET,,BROOKLYN,NY,11231,7188751500
SIDEWALK CAFE,1308601,Unenclosed,170,MANNA 2ND AVENUE LLC,,1575,2 AVENUE,,NEW YORK,NY,10028,9179028947
SIDEWALK CAFE,1308836,Unenclosed,350,J.T. CULINARY LLC,,1187,AMSTERDAM AVENUE,,NEW YORK,NY,10027,2126667042
SIDEWALK CAFE,1308999,Unenclosed,162,DESMO 916 CORP.,LAVAGNA,545,EAST    5 STREET,,NEW YORK,NY,10009,2129791005
SIDEWALK CAFE,1309076,Unenclosed,319,18 BEDFORD AVE LLC,,18,BEDFORD AVENUE,,BROOKLYN,NY,11222,6465106467
SIDEWALK CAFE,1309290,Unenclosed,850,"ABG STANDARD OPERATOR, LLC",,848,WASHINGTON STREET,,NEW YORK,NY,10014,2125131988
SIDEWALK CAFE,1309505,Unenclosed,199,2005 MAMBO SUSHI CORP,,2005,EMMONS AVENUE,,BROOKLYN,NY,11235,7186463100
SIDEWALK CAFE,1309603,Unenclosed,275,CHOW DOWN INC,,824,NINTH AVENUE,,NEW YORK,NY,10019,212765
SIDEWALK CAFE,1309731,Unenclosed,275,Q & P PIZZA INC,,28-01,STEINWAY STREET,,QUEENS,NY,11103,7182744870
SIDEWALK CAFE,1309926,Unenclosed,202,ELORA SPANISH MEXICAN RESTAURANT INC.,,272,PROSPECT PARK WEST,,BROOKLYN,NY,11215,9176555524
SIDEWALK CAFE,1309948,Unenclosed,122,"ZORROR ASIAN, INC.",,118,MONTAGUE STREET,,BROOKLYN,NY,11201,7188558688
SIDEWALK CAFE,1309963,Unenclosed,254,46-02 SKILLMAN CAFE LLC,,46-02,SKILLMAN AVENUE,,SUNNYSIDE,NY,11104,7187911501
SIDEWALK CAFE,1310081,Unenclosed,169,JTN RIVIERA CORP,,1113,FIRST AVENUE,,NEW YORK,NY,10065,2122236220
SIDEWALK CAFE,1310240,Unenclosed,108,401 W 50 TAVERN INC.,,401,WEST   50 STREET,10019,NEW YORK,NY,10019,2129699703
SIDEWALK CAFE,1310255,Unenclosed,224,1702 RATHBONES INC.,,1702,2 AVENUE,,NEW YORK,NY,10128,2122087272
SIDEWALK CAFE,1310316,Unenclosed,84,"NAHM, INC.",,690,NINTH AVENUE,,NEW YORK,NY,10036,6463318738
SIDEWALK CAFE,1310342,Unenclosed,208,CAFE STEINHOF INC.,,422,SEVENTH AVENUE,,BROOKLYN,NY,11215,7183893189
SIDEWALK CAFE,1310522,Unenclosed,306,PESCATORE 15 INC,,955-957,2 AVENUE,,NEW YORK,NY,10022,2127527151
SIDEWALK CAFE,1310867,Unenclosed,207,IL PORTO LLC,,37,WASHINGTON AVENUE,,BROOKLYN,NY,11205,9177969441
SIDEWALK CAFE,1310868,Unenclosed,88,ALI BABA'S TERRACE,,862,2 AVENUE,,NEW YORK,NY,10017,2128888622
SIDEWALK CAFE,1310960,Unenclosed,56,BELCANTATA REST. INC,,922,3 AVENUE,,NEW YORK,NY,10022,2128322021
SIDEWALK CAFE,1310982,Unenclosed,342,SEAN OG ENTERPRISES LLC,,60-02,WOODSIDE AVENUE,,QUEENS,NY,11377,7188993499
SIDEWALK CAFE,1310995,Unenclosed,275,GLOBAL ENTERTAINMENT GROUP LLC,,77-17,QUEENS BOULEVARD,,ELMHURST,NY,11373,7186519009
SIDEWALK CAFE,1311123,Unenclosed,208,MAZ MEZCAL INC.,,316,EAST   86 STREET,,NEW YORK,NY,10028,6314248480
SIDEWALK CAFE,1311161,Unenclosed,315,"SABOR LATINO I,CORP",,95-35,40 ROAD,,QUEENS,NY,11373,7184573966
SIDEWALK CAFE,1311304,Unenclosed,144,IFETA CORP,,41-15,31 AVENUE,,ASTORIA,NY,11103,7187771355
SIDEWALK CAFE,1311307,Unenclosed,68,ANAGAP RESTAURANT INC.,,531,2 AVENUE,,NEW YORK,NY,10016,2127259440
SIDEWALK CAFE,1311319,Unenclosed,98,PASTA BISTRO GRILL INC.,,93,MACDOUGAL STREET,,NEW YORK,NY,10012,2122605679
SIDEWALK CAFE,1312021,Unenclosed,35,LX AVENUE BAGELS INC.,TAI BAGELS,1228,LEXINGTON AVENUE,,NEW YORK,NY,10028,9175234972
SIDEWALK CAFE,1312039,Unenclosed,195,CURRY MAHAL INC.,,119,LEXINGTON AVENUE,,NEW YORK,NY,10016,2126856385
SIDEWALK CAFE,1312041,Unenclosed,204,CAFE CASANO LLC,,38,WEST STREET,,NEW YORK,NY,10280,2122677000
SIDEWALK CAFE,1312044,Unenclosed,320,OSTERIA CASANO LLC,,28,WEST STREET,,NEW YORK,NY,10280,2122678000
SIDEWALK CAFE,1312498,Unenclosed,188,110 VARICK ST CORP.,,110,VARICK STREET,,NEW YORK,NY,10013,2129255998
SIDEWALK CAFE,1312628,Unenclosed,108,JOS HOSPITALITY GROUP LLC,,566,AMSTERDAM AVENUE,,NEW YORK,NY,10024,6462453459
SIDEWALK CAFE,1312716,Unenclosed,184,KANG YUE USA CORP.,,107-18,70 ROAD,,FOREST HILLS,NY,11375,7182633333
SIDEWALK CAFE,1312717,Unenclosed,144,58 2ND REST CORP.,,58,2 AVENUE,,NEW YORK,NY,10003,2127772840
SIDEWALK CAFE,1313044,Unenclosed,250,BECAF LLC,,33,AVENUE B,,NEW YORK,NY,10009,2122284461
SIDEWALK CAFE,1313270,Unenclosed,102,CYRIL 254 FIFTH AVENUE LLC,,254,5 AVENUE,,NEW YORK,NY,10001,6464582436
SIDEWALK CAFE,1313474,Unenclosed,266,"133 MULBERRY STREET RESTAURANT, LLC",,133,MULBERRY STREET,,NEW YORK,NY,10013,2129253120
SIDEWALK CAFE,1313701,Unenclosed,393,MOJITO CUBAN CUISINE CORP,,82,WASHINGTON AVENUE,,BROOKLYN,NY,11205,7187973100
SIDEWALK CAFE,1313851,Unenclosed,216,PAOLA'S RETAURANT GROUP LLC,,1295,MADISON AVENUE,,NEW YORK,NY,10128,2127941890
SIDEWALK CAFE,1314137,Unenclosed,421,451 GRAHAM AVENUE CORP,,451,GRAHAM AVENUE,,BROOKLYN,NY,11222,7183890839
SIDEWALK CAFE,1314257,Unenclosed,243,662 FULTON ST RESTAURANT CORP,,662,FULTON STREET,,BROOKLYN,NY,11217,7188526503
SIDEWALK CAFE,1314393,Unenclosed,129,"JASPER'S PIZZA & MORE, LLC",,3535,RIVERDALE AVENUE,,BRONX,NY,10463,7186019000
SIDEWALK CAFE,1314421,Unenclosed,,2896 BROADWAY FOOD SERVICE INC.,,2893,BROADWAY,,NEW YORK,NY,10025,2126652800
SIDEWALK CAFE,1314788,Unenclosed,54,ROMY EAST LLC,,1420,3 AVENUE,,NEW YORK,NY,10028,2122880012
SIDEWALK CAFE,1314793,Unenclosed,175,AAM RESTAURANT LLC,,415,3 AVENUE,,NEW YORK,NY,10016,2127258484
SIDEWALK CAFE,1314804,Unenclosed,145,CAPICUA CORPORATION,,204 - 208,COLUMBUS AVENUE,,NEW YORK,NY,10023,2123625265
SIDEWALK CAFE,1314914,Unenclosed,101,SUBLIME PORTE LLC,TURKS & FROGS TRIBECA,458,GREENWICH STREET,,NEW YORK,NY,10013,2129664774
SIDEWALK CAFE,1315083,Unenclosed,78,RAVAGH RESTAURANT CORP.,,1237,1 AVENUE,,NEW YORK,NY,10065,2128617900
SIDEWALK CAFE,1315172,Unenclosed,89,"NEW YORK PIZZA 33, INC.",PIZZA 33,527,6 AVENUE,,NEW YORK,NY,10011,2122556333
SIDEWALK CAFE,1315213,Unenclosed,113,"E.D.O. FOOD IV, LLC.",,71,7 AVENUE SOUTH,,NEW YORK,NY,10014,2129242022
SIDEWALK CAFE,1315235,Unenclosed,344,CHICKEN SHACK INC,,35-02,30 AVENUE,,QUEENS,NY,11103,7187213035
SIDEWALK CAFE,1315316,Unenclosed,330,"AMSTERDAM ALE HOUSE,INCORPORATED",,340,AMSTERDAM AVENUE,,NEW YORK,NY,10024,9174073144
SIDEWALK CAFE,1315480,Unenclosed,124,ALPHA FUSION INC,,365,WEST   34 STREET,,NEW YORK,NY,10001,2122798887
SIDEWALK CAFE,1315623,Unenclosed,297,ALA TURK INC,,1417,2 AVENUE,,NY,NY,10021,2127442424
SIDEWALK CAFE,1315977,Unenclosed,140,RECTOR STREET FOOD ENTERPRISES LTD.,,11,RECTOR STREET,87-89 GREENWICH STREET,NEW YORK,NY,10006,2122698026
SIDEWALK CAFE,1316160,Unenclosed,178,ISTANBUL CAFE CORP.,,325,WEST   57 STREET,,NEW YORK,NY,10019,6462666593
SIDEWALK CAFE,1316170,Unenclosed,99,"MARCO POLO TAKE OUT, LLC",,347,COURT STREET,,BROOKLYN,NY,11231,7182431000
SIDEWALK CAFE,1316363,Unenclosed,147,"LITTLE APPLE, LTD",,537,WEST  207 STREET,,NEW YORK,NY,10034,2125678555
SIDEWALK CAFE,1316751,Unenclosed,57,SULLIVAN RESTAURANT LLC,,230,9 AVENUE,,NEW YORK,NY,10001,2122431105
SIDEWALK CAFE,1317766,Unenclosed,138,BROOKLYN HEIGHTS WINE BAR LLC,,50,HENRY STREET,,BROOKLYN,NY,11201,7188341776
SIDEWALK CAFE,1318210,Unenclosed,108,"WATAWA, INC",,33-10,DITMARS BOULEVARD,,ASTORIA,NY,11105,7185459596
SIDEWALK CAFE,1318225,Enclosed,287,SOUTHWEST 85TH RESTAURANT CORP.,,1633,SECOND AVENUE,,NEW YORK,NY,10028,2127449194
SIDEWALK CAFE,1318462,Unenclosed,203,VALDOME INC,,122,EAST   27 STREET,,NEW YORK,NY,10016,2122138771
SIDEWALK CAFE,1318806,Unenclosed,170,PGT REST. CORP.,,304,BOWERY,,NEW YORK,NY,10012,2122537030
SIDEWALK CAFE,1318895,Unenclosed,180,BLOSSOM RESTAURANT & CAFE INC.,,466,COLUMBUS AVENUE,,NEW YORK,NY,10024,2128752609
SIDEWALK CAFE,1319263,Unenclosed,425,GREENWICH HOTEL RESTURANT LLC,,377,GREENWICH STREET,,NEW YORK,NY,10013,9172241800
SIDEWALK CAFE,1319273,Unenclosed,162,PITA GRILL 77 LLC,VIA RESTAURANT,225,WEST   77 STREET,,NEW YORK,NY,10024,2123624500
SIDEWALK CAFE,1319786,Unenclosed,285,TAZZINI CORP.,,311,HENRY STREET,,BROOKLYN,NY,11201,7182430487
SIDEWALK CAFE,1319843,Unenclosed,83,C & P FOOD CORPORATION,,514,3 AVENUE,,NEW YORK,NY,10016,2125450144
SIDEWALK CAFE,1320327,Unenclosed,268,"DEFONTE'S OF NEW YORK, INC.",,261,THIRD AVENUE,,NEW YORK,NY,10010,7183176413
SIDEWALK CAFE,1320689,Unenclosed,165,324 SEVENTH AVE. RESTAURANT CORP.,,324,7 AVENUE,,NEW YORK,NY,10001,2126953806
SIDEWALK CAFE,1320701,Unenclosed,200,352 RESTAURANT CORP,,352,7 AVENUE,,NEW YORK,NY,10001,2122688930
SIDEWALK CAFE,1320710,Unenclosed,379,5693 RESTAURANT CORP,MUSTANG'S,5693,RIVERDALE AVENUE,,BRONX,NY,10471,7186012572
SIDEWALK CAFE,1320797,Unenclosed,181,511 AMSTERDAM VINO CORP.,,511,AMSTERDAM AVENUE,,NEW YORK,NY,10024,2128772267
SIDEWALK CAFE,1320914,Unenclosed,160,CAFE 522 HUDSON INC.,,522,HUDSON STREET,,NEW YORK,NY,10014,6462266046
SIDEWALK CAFE,1321086,Unenclosed,177,37 BROADWAY GROUP INC,POMME CAFE,37-19,BROADWAY,,ASTORIA,NY,11103,7185458822
SIDEWALK CAFE,1321094,Unenclosed,256,"MANDUCATIS RUSTICA VIG, LTD.",,46-35,VERNON BOULEVARD,,LIC,NY,11101,7185458822
SIDEWALK CAFE,1321660,Unenclosed,138,"NABUCCO, LLC",,283,AMSTERDAM AVENUE,,NEW YORK,NY,10023,9173280964
SIDEWALK CAFE,1322918,Unenclosed,172,"NOROC, LLC.",,43-45,40 STREET,,SUNNYSIDE,NY,11104,7183892300
SIDEWALK CAFE,1323044,Unenclosed,163,GULLUOGLU LLC,,982,2 AVENUE,,NEW YORK,NY,10022,2128130500
SIDEWALK CAFE,1323151,Unenclosed,278,A & A FOOD ENTERPRISES LLC,,107-02,70 ROAD,,QUEENS,NY,11375,7185442433
SIDEWALK CAFE,1323159,Unenclosed,173,LA MERIDIANA 2 LTD.,,176,2 AVENUE,,NEW YORK,NY,10003,9178659278
SIDEWALK CAFE,1323228,Unenclosed,153,112 RESTAURANT CORP.,,112,BOND STREET,,BROOKLYN,NY,11217,7188520301
SIDEWALK CAFE,1323280,Unenclosed,533,SYLVIA WOODS INC,,328,LENOX AVENUE,AKA MALCOLM X BLVD,NEW YORK,NY,10027,2129660660
SIDEWALK CAFE,1323624,Enclosed,,"SHARAKU, INC",,14,STUYVESANT STREET,,NEW YORK,NY,10003,2125980403
SIDEWALK CAFE,1323685,Unenclosed,208,PORFIRIO SUERO SR.,,73,JAY STREET,,BROOKLYN,NY,11201,7187972851
SIDEWALK CAFE,1324003,Unenclosed,323,30-03 47TH STREET CORP.,,47-02,30 AVENUE,,ASTORIA,NY,11103,2124651318
SIDEWALK CAFE,1324320,Unenclosed,213,S & K HALAL CHINESE FUSION INC,,184-22,HORACE HARDING EXPRESSWAY,,FRESH MEADOWS,NY,11365,9174156515
SIDEWALK CAFE,1324561,Unenclosed,204,13TH STREET ENTERTAINMENT LLC,,409,WEST   13 STREET,,NEW YORK,NY,10014,2122251933
SIDEWALK CAFE,1325458,Unenclosed,320,"SPUNTO, INC.",,65,CARMINE STREET,,NEW YORK,NY,10014,2122421200
SIDEWALK CAFE,1326142,Unenclosed,285,68TH ST CAFE INC.,,2014,BROADWAY,,NEW YORK,NY,10023,2127241400
SIDEWALK CAFE,1326438,Unenclosed,175,SEA BREEZE PHARMACY & MEDICAL SUPPLY INC,,1129,BRIGHTON BEACH AVENUE,,BROOKLYN,NY,11235,7186460660
SIDEWALK CAFE,1326701,Enclosed,,ZUCCA TRATTORIA INC.,,95,7 AVENUE SOUTH,,NEW YORK,NY,10014,2122551980
SIDEWALK CAFE,1327313,Unenclosed,98,B & C THAI GIFT TRADING INC,,34-16,BROADWAY,,ASTORIA,NY,11106,7189328827
SIDEWALK CAFE,1327665,Unenclosed,363,3321 ASTORIA INC,,33-21,31 AVENUE,,ASTORIA,NY,11106,7187777011
SIDEWALK CAFE,1328754,Unenclosed,198,AQ KAFE LLC,,1800,BROADWAY,,NEW YORK,NY,10019,212
SIDEWALK CAFE,1329305,Enclosed,144,542 3RD AVENUE FOOD CORP,,542,3 AVENUE,,NEW YORK,NY,10016,6462941902
SIDEWALK CAFE,1329670,Unenclosed,217,LENZ'S FOOD INC.,20TH ST. FOOD CORP,514,EAST   20 STREET,,NEW YORK CITY,NY,10009,2129795736
SIDEWALK CAFE,1331625,Unenclosed,168,JEMANYA CORP,,57,SOUTH    5 STREET,,BROOKLYN,NY,11211,7182304040
SIDEWALK CAFE,1333967,Unenclosed,123,DAVE 60 NYC INC,,33,EAST   60 STREET,,NEW YORK,NY,10022,2128884295
SIDEWALK CAFE,1334107,Unenclosed,586,TREL RESTAURANT INC,,800,SEVENTH AVENUE,,NEW YORK,NY,10019,212
SIDEWALK CAFE,1334619,Unenclosed,126,MADISON GLOBAL LLC,,696,MADISON AVENUE,,NEW YORK,NY,10065,2127368700
SIDEWALK CAFE,1336537,Unenclosed,104,PARISENNE CAFE INCORPORATED,,2339,ARTHUR AVENUE,,BRONX,NY,10458,6464020758
SIDEWALK CAFE,1336661,Unenclosed,73,NEW YORK PAO DE QUEIJO LLC,,31-90,30 STREET,,ASTORIA,NY,11106,7182041979
SIDEWALK CAFE,1337067,Unenclosed,191,GARI INTERNATIONAL INC.,,370,COLUMBUS AVENUE,,NEW YORK,NY,10024,2129327466
SIDEWALK CAFE,1338364,Unenclosed,252,121ST STREET CAFE LTD.,,1241,AMSTERDAM AVENUE,,NEW YORK,NY,10027,9179124409
SIDEWALK CAFE,1338515,Enclosed,,"H.B RESTAURANT GROUP, INC.",HUNAN BALCONY,2596,BROADWAY,,NEW YORK,NY,10025,2128650400
SIDEWALK CAFE,1338890,Unenclosed,126,TUTTO BENE RESTAURANT INC.,,108,8 AVENUE,,NEW YORK,NY,10011,2129247786
SIDEWALK CAFE,1338960,Unenclosed,335,CAFE RUSTICA INC,,8320,3 AVENUE,,BROOKLYN,NY,11209,3475174743
SIDEWALK CAFE,1338974,Enclosed,,ABITINO'S PIZZA 49TH STREET CORP,,936,2 AVENUE,,NEW YORK,NY,10022,2123081234
SIDEWALK CAFE,1339224,Unenclosed,253,VINO FIVE GROUP LLC,,201,EAST   31 STREET,,NEW YORK,NY,10016,2127288466
SIDEWALK CAFE,1339241,Unenclosed,181,LENNYS 74TH STREET LLC,,302,COLUMBUS AVENUE,,NEW YORK,NY,10023,2125808300
SIDEWALK CAFE,1341044,Enclosed,,CARABEAN LLC,,133,7 AVENUE SOUTH,,NEW YORK,NY,10014,9176913630
SIDEWALK CAFE,1341402,Unenclosed,360,DONIZETTI LLC,,2315,BROADWAY,,NEW YORK,NY,10024,2127572277
SIDEWALK CAFE,1341610,Unenclosed,,BU YAO PA LLC,VINE SUSHI,2955-2957,BROADWAY,,NEW YORK,NY,10025,6467390337
SIDEWALK CAFE,1341925,Unenclosed,85,D & D THAI RESTAURANT CORP,,450,AMSTERDAM AVENUE,,NEW YORK,NY,10024,6467508762
SIDEWALK CAFE,1342248,Unenclosed,479,"BROOKLYN FOOD & DRINK, LLC.",,570,VANDERBILT AVENUE,,BROOKLYN,NY,11238,7186230570
SIDEWALK CAFE,1342712,Unenclosed,230,"CAFE MOCHA, INC.",,116,2 AVENUE,,NEW YORK,NY,10003,2122532050
SIDEWALK CAFE,1342907,Unenclosed,157,"EMILIA, INC.",,184,SPRING STREET,,NEW YORK,NY,10012,2123431445
SIDEWALK CAFE,1343045,Unenclosed,306,FRIENDLY FOODS LLC,,282,BOWERY,,NEW YORK,NY,10012,2129255340
SIDEWALK CAFE,1343247,Unenclosed,600,FIG & OLIVE THIRTEEN STREET LLC,,420,WEST   13 STREET,,NEW YORK,NY,10014,9172096177
SIDEWALK CAFE,1343308,Unenclosed,200,SUMMIT OF THE WORLD INC.,,75,GREENWICH AVENUE,,NEW YORK,NY,10014,2126479600
SIDEWALK CAFE,1343596,Enclosed,,A LA TURK INC,,1417,2 AVENUE,,NY,NY,10021,2127442424
SIDEWALK CAFE,1343613,Unenclosed,61,COPEL 2007 INC,,39,EAST   19 STREET,,NEW YORK,NY,10003,2125823000
SIDEWALK CAFE,1343834,Unenclosed,450,CHEZ OSKAR INC.,,211,DEKALB AVENUE,,BROOKLYN,NY,11205,7188526250
SIDEWALK CAFE,1343867,Unenclosed,105,AQUALIS LLC,,773,FULTON STREET,,BROOKLYN,NY,11217,7187973494
SIDEWALK CAFE,1343896,Unenclosed,85,ALBEROBELLO CAFFE INC,,1135,1 AVENUE,,NEW YORK,NY,10065,2123712166
SIDEWALK CAFE,1344043,Unenclosed,,A & D WINE CORP.,,65,2 AVENUE,,NEW YORK,NY,10003,9173291981
SIDEWALK CAFE,1344183,Unenclosed,207,"DON PABLO, INC.",,1725,2 AVENUE,,NEW YORK,NY,10128,2122898944
SIDEWALK CAFE,1345353,Unenclosed,333,HL KOELN CORP,,710,FULTON STREET,,BROOKLYN,NY,11217,7188588898
SIDEWALK CAFE,1345473,Unenclosed,140,"TEN JAPANESE CUISINE, CORP.",,440,7 AVENUE,,BROOKLYN,NY,11215,7187689888
SIDEWALK CAFE,1345738,Unenclosed,153,HELL'S KITCHEN CREAM & SUGAR INC,,626,10 AVENUE,,NEW YORK,NY,10036,2123994450
SIDEWALK CAFE,1345817,Unenclosed,300,BURKINABE ENTERTAINMENT LLC,,2269,ADAM CLAYTON POWELL JR. BLVD,,NEW YORK,NY,10030,212690699
SIDEWALK CAFE,1345829,Unenclosed,253,J.A.V. FOOD CORP.,,1505,1 AVENUE,,NEW YORK,NY,10075,2124520690
SIDEWALK CAFE,1345894,Unenclosed,251,SUTOL OPERATING COMPANY LLC,ABE & ARTHUR'S RESTAURANT,409,WEST   14 STREET,,NEW YORK,NY,10014,2126271235
SIDEWALK CAFE,1346272,Unenclosed,317,AMBER ASIAN ONE INC.,,1406,3 AVENUE,,NEW YORK,NY,10075,2122495020
SIDEWALK CAFE,1346477,Enclosed,,INNOVATION 2010 INC.,,15,GREENWICH AVENUE,,NEW YORK,NY,10014,2129611535
SIDEWALK CAFE,1346491,Unenclosed,98,"ACUMEN GMAT, LLC",,2905,BROADWAY,,NEW YORK,NY,10025,2126625265
SIDEWALK CAFE,1347094,Unenclosed,207,L PLUS L PRODUCTIONS LLC,,113,7 AVENUE SOUTH,,NEW YORK,NY,10014,6463181847
SIDEWALK CAFE,1347261,Unenclosed,320,"ACT 718,LLC",,149,4 AVENUE,,BROOKLYN,NY,11217,7188574337
SIDEWALK CAFE,1347971,Unenclosed,,333 LAFAYETTE LLC,PINCHE TAQUERIA,333,LAFAYETTE STREET,,NEW YORK,NY,10012,2123439977
SIDEWALK CAFE,1348205,Unenclosed,,THIRD AVE CAFE LLC,,431,3 AVENUE,,NEW YORK,NY,10016,2122520146
SIDEWALK CAFE,1348216,Enclosed,,151 BLEECKER LLC,,151,BLEECKER STREET,,NEW YORK,NY,10012,2122609797
SIDEWALK CAFE,1348224,Unenclosed,104,NANA SUSHI & LOUNGE INC,,511,3 AVENUE,,NEW YORK,NY,10016,2126831088
SIDEWALK CAFE,1348439,Unenclosed,,OLIMATT LLC,LE P'TIT PARIS,256,PROSPECT PARK WEST,,BROOKLYN,NY,11215,7183693590
SIDEWALK CAFE,1350796,Enclosed,,"CORNED BEEF EXPRESS, LLC",ARTIES'S DELICATESSEN,2290,BROADWAY,,NEW YORK,NY,10024,2125795959
SIDEWALK CAFE,1354338,Enclosed,,JAN CO CENTRAL INC,,3451,BROADWAY,,NY,NY,10031,4019464000
SIDEWALK CAFE,1354470,Enclosed,,AMBER WEST 70 INC,,221-223,COLUMBUS AVENUE,,NEW YORK,NY,10023,2127998100
SIDEWALK CAFE,1354705,Enclosed,,LANSKY'S OPERATING CORPORATION,,235,COLUMBUS AVENUE,,NEW YORK,NY,10023,6462756820
SIDEWALK CAFE,1357229,Unenclosed,,SUSHI HANA FUSION INC,,466,AMSTERDAM AVENUE,,NEW YORK,NY,10024,2128740369
